{"type":"FeatureCollection","features":[{"type":"Feature","id":"node/11756283940","properties":{"type":"node","id":11756283940,"tags":{"addr:city":"Milano","addr:housenumber":"1","addr:postcode":"20159","addr:street":"Via Valtellina","email":"dir.lombardia@adm.gov.it","government":"public_service","name":"Agenzia delle Dogane e dei Monopoli","office":"government","opening_hours":"Mo-Fr 10:00-13:00; Sa,Su-PH off","phone":"+39 02 699131","website":"https://www.adm.gov.it/portale/-/direzione-regionale"},"relations":[],"meta":{},"addr:city":"Milano","addr:housenumber":"1","addr:postcode":"20159","addr:street":"Via Valtellina","email":"dir.lombardia@adm.gov.it","government":"public_service","name":"Agenzia delle Dogane e dei Monopoli","office":"government","opening_hours":"Mo-Fr 10:00-13:00; Sa,Su-PH off","phone":"+39 02 699131","website":"https://www.adm.gov.it/portale/-/direzione-regionale"},"geometry":{"type":"Point","coordinates":[9.1813372,45.4895038]}},{"type":"Feature","id":"node/13064781942","properties":{"type":"node","id":13064781942,"tags":{"check_date":"2025-08-12","government":"tax","name":"Agenzia Entrate Riscossione","office":"government","operator:wikidata":"Q36663103","website":"https://www.agenziaentrateriscossione.gov.it/"},"relations":[],"meta":{},"check_date":"2025-08-12","government":"tax","name":"Agenzia Entrate Riscossione","office":"government","operator:wikidata":"Q36663103","website":"https://www.agenziaentrateriscossione.gov.it/"},"geometry":{"type":"Point","coordinates":[9.1900507,45.4916594]}}]}