{"type":"FeatureCollection","features":[{"type":"Feature","id":"node/266972542","properties":{"type":"node","id":266972542,"tags":{"addr:city":"Milano","addr:country":"IT","addr:housenumber":"3","addr:postcode":"20159","addr:street":"Via Traù","amenity":"bank","atm":"yes","name":"Banco di Desio","wheelchair":"limited"},"relations":[],"meta":{},"addr:city":"Milano","addr:country":"IT","addr:housenumber":"3","addr:postcode":"20159","addr:street":"Via Traù","amenity":"bank","atm":"yes","name":"Banco di Desio","wheelchair":"limited"},"geometry":{"type":"Point","coordinates":[9.1901608,45.4900661]}},{"type":"Feature","id":"node/358879494","properties":{"type":"node","id":358879494,"tags":{"addr:city":"Milano","addr:country":"IT","addr:housenumber":"9","addr:postcode":"20159","addr:street":"Piazzale Lagosta","amenity":"bank","atm":"yes","brand":"Banca Popolare di Milano","brand:en":"Popular Bank of Milan","brand:it":"Banca Popolare di Milano","brand:wikidata":"Q806154","brand:wikipedia":"en:Banca Popolare di Milano","name":"Banca Popolare di Milano","name:en":"Popular Bank of Milan","name:it":"Banca Popolare di Milano"},"relations":[],"meta":{},"addr:city":"Milano","addr:country":"IT","addr:housenumber":"9","addr:postcode":"20159","addr:street":"Piazzale Lagosta","amenity":"bank","atm":"yes","brand":"Banca Popolare di Milano","brand:en":"Popular Bank of Milan","brand:it":"Banca Popolare di Milano","brand:wikidata":"Q806154","brand:wikipedia":"en:Banca Popolare di Milano","name":"Banca Popolare di Milano","name:en":"Popular Bank of Milan","name:it":"Banca Popolare di Milano"},"geometry":{"type":"Point","coordinates":[9.1909103,45.4901385]}},{"type":"Feature","id":"node/726917442","properties":{"type":"node","id":726917442,"tags":{"amenity":"bank","atm":"yes","name":"Banca Unicredit","operator":"Unicredit","wheelchair":"limited"},"relations":[],"meta":{},"amenity":"bank","atm":"yes","name":"Banca Unicredit","operator":"Unicredit","wheelchair":"limited"},"geometry":{"type":"Point","coordinates":[9.1851065,45.494443]}},{"type":"Feature","id":"node/2104097151","properties":{"type":"node","id":2104097151,"tags":{"amenity":"bank","atm":"yes","brand":"Banca Popolare di Novara","brand:en":"Popular Bank of Novara","brand:it":"Banca Popolare di Novara","brand:wikidata":"Q3633742","brand:wikipedia":"en:Banca Popolare di Novara","name":"Banca Popolare di Novara","name:en":"Popular Bank of Novara","name:it":"Banca Popolare di Novara","operator":"Banca Popolare di Novara","wheelchair":"limited"},"relations":[],"meta":{},"amenity":"bank","atm":"yes","brand":"Banca Popolare di Novara","brand:en":"Popular Bank of Novara","brand:it":"Banca Popolare di Novara","brand:wikidata":"Q3633742","brand:wikipedia":"en:Banca Popolare di Novara","name":"Banca Popolare di Novara","name:en":"Popular Bank of Novara","name:it":"Banca Popolare di Novara","operator":"Banca Popolare di Novara","wheelchair":"limited"},"geometry":{"type":"Point","coordinates":[9.1854532,45.4943527]}},{"type":"Feature","id":"node/2104112901","properties":{"type":"node","id":2104112901,"tags":{"addr:city":"Milano","addr:country":"IT","addr:housenumber":"47","addr:postcode":"20159","addr:street":"Via Carlo Farini","amenity":"bank","atm":"yes","brand":"Banca Popolare di Sondrio","brand:en":"Popular Bank of Sandrio","brand:it":"Banca Popolare di Sondrio","brand:wikidata":"Q686176","brand:wikipedia":"en:Banca Popolare di Sondrio","name":"Banca Popolare di Sondrio","name:en":"Popular Bank of Sandrio","name:it":"Banca Popolare di Sondrio","wheelchair":"yes"},"relations":[],"meta":{},"addr:city":"Milano","addr:country":"IT","addr:housenumber":"47","addr:postcode":"20159","addr:street":"Via Carlo Farini","amenity":"bank","atm":"yes","brand":"Banca Popolare di Sondrio","brand:en":"Popular Bank of Sandrio","brand:it":"Banca Popolare di Sondrio","brand:wikidata":"Q686176","brand:wikipedia":"en:Banca Popolare di Sondrio","name":"Banca Popolare di Sondrio","name:en":"Popular Bank of Sandrio","name:it":"Banca Popolare di Sondrio","wheelchair":"yes"},"geometry":{"type":"Point","coordinates":[9.1837689,45.4913943]}},{"type":"Feature","id":"node/2438744128","properties":{"type":"node","id":2438744128,"tags":{"addr:city":"Milano","addr:country":"IT","addr:housenumber":"13","addr:postcode":"20159","addr:street":"Viale Zara","amenity":"bank","atm":"yes","brand":"Banca Popolare di Sondrio","brand:en":"Popular Bank of Sandrio","brand:it":"Banca Popolare di Sondrio","brand:wikidata":"Q686176","brand:wikipedia":"en:Banca Popolare di Sondrio","name":"Banca Popolare di Sondrio","name:en":"Popular Bank of Sandrio","name:it":"Banca Popolare di Sondrio","operator":"Banca Popolare di Sondrio","wheelchair":"yes"},"relations":[],"meta":{},"addr:city":"Milano","addr:country":"IT","addr:housenumber":"13","addr:postcode":"20159","addr:street":"Viale Zara","amenity":"bank","atm":"yes","brand":"Banca Popolare di Sondrio","brand:en":"Popular Bank of Sandrio","brand:it":"Banca Popolare di Sondrio","brand:wikidata":"Q686176","brand:wikipedia":"en:Banca Popolare di Sondrio","name":"Banca Popolare di Sondrio","name:en":"Popular Bank of Sandrio","name:it":"Banca Popolare di Sondrio","operator":"Banca Popolare di Sondrio","wheelchair":"yes"},"geometry":{"type":"Point","coordinates":[9.1916827,45.4913249]}},{"type":"Feature","id":"node/2488621641","properties":{"type":"node","id":2488621641,"tags":{"addr:city":"Milano","addr:housenumber":"23","addr:postcode":"20159","addr:street":"Via Luigi Porro Lambertenghi","amenity":"post_office","atm":"yes","drive_through":"no","fax":"+39 02 6880003","name":"Milano 22","opening_hours":"Mo-Fr 08:20-13:35; Sa 08:20-12:35; Su off","operator":"Poste Italiane","operator:wikidata":"Q495026","operator:wikipedia":"en:Poste italiane","phone":"+39 02 6888961","ref":"38135","wheelchair":"no"},"relations":[],"meta":{},"addr:city":"Milano","addr:housenumber":"23","addr:postcode":"20159","addr:street":"Via Luigi Porro Lambertenghi","amenity":"post_office","atm":"yes","drive_through":"no","fax":"+39 02 6880003","name":"Milano 22","opening_hours":"Mo-Fr 08:20-13:35; Sa 08:20-12:35; Su off","operator":"Poste Italiane","operator:wikidata":"Q495026","operator:wikipedia":"en:Poste italiane","phone":"+39 02 6888961","ref":"38135","wheelchair":"no"},"geometry":{"type":"Point","coordinates":[9.1884896,45.4891059]}},{"type":"Feature","id":"node/2488630846","properties":{"type":"node","id":2488630846,"tags":{"addr:city":"Milano","addr:postcode":"20159","addr:street":"Piazza Fidia","amenity":"bank","atm":"no","name":"Fineco"},"relations":[],"meta":{},"addr:city":"Milano","addr:postcode":"20159","addr:street":"Piazza Fidia","amenity":"bank","atm":"no","name":"Fineco"},"geometry":{"type":"Point","coordinates":[9.1859321,45.4891379]}},{"type":"Feature","id":"node/2777576677","properties":{"type":"node","id":2777576677,"tags":{"addr:city":"Milano","addr:housenumber":"14","addr:postcode":"20159","addr:street":"Via Luigi Federico Menabrea","amenity":"post_office","fax":"+39 02 6687034","name":"Milano 39","opening_hours":"Mo-Fr 08:20-13:35; Sa 08:20-12:35","operator":"Poste Italiane","operator:wikidata":"Q495026","operator:wikipedia":"en:Poste italiane","phone":"+39 02 69000791","ref":"38228"},"relations":[],"meta":{},"addr:city":"Milano","addr:housenumber":"14","addr:postcode":"20159","addr:street":"Via Luigi Federico Menabrea","amenity":"post_office","fax":"+39 02 6687034","name":"Milano 39","opening_hours":"Mo-Fr 08:20-13:35; Sa 08:20-12:35","operator":"Poste Italiane","operator:wikidata":"Q495026","operator:wikipedia":"en:Poste italiane","phone":"+39 02 69000791","ref":"38228"},"geometry":{"type":"Point","coordinates":[9.1868312,45.495252]}},{"type":"Feature","id":"node/3147196023","properties":{"type":"node","id":3147196023,"tags":{"amenity":"atm","check_date":"2021-01-06","operator":"Banca Popolare di Milano"},"relations":[],"meta":{},"amenity":"atm","check_date":"2021-01-06","operator":"Banca Popolare di Milano"},"geometry":{"type":"Point","coordinates":[9.1909844,45.490133]}},{"type":"Feature","id":"node/3396636405","properties":{"type":"node","id":3396636405,"tags":{"amenity":"bank","atm":"yes","brand":"Credem","brand:wikidata":"Q3696881","brand:wikipedia":"en:Credito Emiliano","name":"Credem","official_name":"Credito Emiliano"},"relations":[],"meta":{},"amenity":"bank","atm":"yes","brand":"Credem","brand:wikidata":"Q3696881","brand:wikipedia":"en:Credito Emiliano","name":"Credem","official_name":"Credito Emiliano"},"geometry":{"type":"Point","coordinates":[9.1872392,45.4938657]}},{"type":"Feature","id":"node/3396636411","properties":{"type":"node","id":3396636411,"tags":{"amenity":"bank","brand":"Monte dei Paschi di Siena","brand:wikidata":"Q46730","brand:wikipedia":"en:Banca Monte dei Paschi di Siena","name":"Monte dei Paschi di Siena"},"relations":[],"meta":{},"amenity":"bank","brand":"Monte dei Paschi di Siena","brand:wikidata":"Q46730","brand:wikipedia":"en:Banca Monte dei Paschi di Siena","name":"Monte dei Paschi di Siena"},"geometry":{"type":"Point","coordinates":[9.1876918,45.4941046]}},{"type":"Feature","id":"node/3396636412","properties":{"type":"node","id":3396636412,"tags":{"amenity":"bank","atm":"yes","brand":"Monte dei Paschi di Siena","brand:wikidata":"Q46730","brand:wikipedia":"en:Banca Monte dei Paschi di Siena","name":"Monte dei Paschi di Siena","operator":"Monte dei Paschi di Siena"},"relations":[],"meta":{},"amenity":"bank","atm":"yes","brand":"Monte dei Paschi di Siena","brand:wikidata":"Q46730","brand:wikipedia":"en:Banca Monte dei Paschi di Siena","name":"Monte dei Paschi di Siena","operator":"Monte dei Paschi di Siena"},"geometry":{"type":"Point","coordinates":[9.1875879,45.4941572]}},{"type":"Feature","id":"node/4142385604","properties":{"type":"node","id":4142385604,"tags":{"addr:city":"Milano","addr:country":"IT","addr:housenumber":"56","addr:postcode":"20159","addr:street":"Via Carlo Farini","amenity":"bank","brand":"Intesa Sanpaolo","brand:wikidata":"Q1343118","brand:wikipedia":"it:Intesa Sanpaolo","name":"Intesa Sanpaolo","wheelchair":"yes"},"relations":[],"meta":{},"addr:city":"Milano","addr:country":"IT","addr:housenumber":"56","addr:postcode":"20159","addr:street":"Via Carlo Farini","amenity":"bank","brand":"Intesa Sanpaolo","brand:wikidata":"Q1343118","brand:wikipedia":"it:Intesa Sanpaolo","name":"Intesa Sanpaolo","wheelchair":"yes"},"geometry":{"type":"Point","coordinates":[9.1846489,45.492575]}},{"type":"Feature","id":"node/4453500071","properties":{"type":"node","id":4453500071,"tags":{"addr:city":"Milano","addr:housenumber":"6","addr:postcode":"20159","addr:street":"Via Ugo Bassi","amenity":"bank","atm":"no","drive_through":"no","operator":"Generali"},"relations":[],"meta":{},"addr:city":"Milano","addr:housenumber":"6","addr:postcode":"20159","addr:street":"Via Ugo Bassi","amenity":"bank","atm":"no","drive_through":"no","operator":"Generali"},"geometry":{"type":"Point","coordinates":[9.1843606,45.4884109]}},{"type":"Feature","id":"node/5074925193","properties":{"type":"node","id":5074925193,"tags":{"addr:city":"Milano","addr:country":"IT","addr:housenumber":"7","addr:postcode":"20159","addr:street":"Via Francesco Arese","amenity":"bank","name":"Credito Artigiano","opening_hours":"Mo-Fr 08:30-16:15"},"relations":[],"meta":{},"addr:city":"Milano","addr:country":"IT","addr:housenumber":"7","addr:postcode":"20159","addr:street":"Via Francesco Arese","amenity":"bank","name":"Credito Artigiano","opening_hours":"Mo-Fr 08:30-16:15"},"geometry":{"type":"Point","coordinates":[9.1908708,45.4915361]}},{"type":"Feature","id":"node/9308132564","properties":{"type":"node","id":9308132564,"tags":{"addr:city":"Milano","addr:housenumber":"16","addr:postcode":"20159","addr:street":"Viale Stelvio","amenity":"atm","currency:XBT":"yes","description":"Bancomat ATM di CryptoLocalAtm. Criptovalute supportate: Bitcoin, Ethereum, Litecoin, Dogecoin, Bitcoin Cash, Dash, Monero, Dai, Ripple e USDT.","email":"support@cryptolocalatm.com","name":"CryptoLocalATM c/o CR Consuler Services","payment:bitcoin":"yes","phone":"+447894438974","website":"https://cryptolocalatm.com"},"relations":[],"meta":{},"addr:city":"Milano","addr:housenumber":"16","addr:postcode":"20159","addr:street":"Viale Stelvio","amenity":"atm","currency:XBT":"yes","description":"Bancomat ATM di CryptoLocalAtm. Criptovalute supportate: Bitcoin, Ethereum, Litecoin, Dogecoin, Bitcoin Cash, Dash, Monero, Dai, Ripple e USDT.","email":"support@cryptolocalatm.com","name":"CryptoLocalATM c/o CR Consuler Services","payment:bitcoin":"yes","phone":"+447894438974","website":"https://cryptolocalatm.com"},"geometry":{"type":"Point","coordinates":[9.1913046,45.4931467]}},{"type":"Feature","id":"node/9707984817","properties":{"type":"node","id":9707984817,"tags":{"amenity":"atm","brand":"Western Union","operator":"Western Union","operator:wikidata":"Q861042","operator:wikipedia":"en:Western Union"},"relations":[],"meta":{},"amenity":"atm","brand":"Western Union","operator":"Western Union","operator:wikidata":"Q861042","operator:wikipedia":"en:Western Union"},"geometry":{"type":"Point","coordinates":[9.1921869,45.4922454]}}]}