{"type":"FeatureCollection","features":[{"type":"Feature","id":"node/252379644","properties":{"type":"node","id":252379644,"tags":{"addr:city":"Milano","addr:housenumber":"25","addr:postcode":"20159","addr:street":"Via Luigi Porro Lambertenghi","amenity":"pharmacy","dispensing":"yes","healthcare":"pharmacy","name":"Castoldi sas","operator":"Dr.ssa Natale Rosalia & c.","ref:msal":"17205","ref:vatin":"IT06197990960","source":"Ministero della Sanità","wheelchair":"no"},"relations":[],"meta":{},"addr:city":"Milano","addr:housenumber":"25","addr:postcode":"20159","addr:street":"Via Luigi Porro Lambertenghi","amenity":"pharmacy","dispensing":"yes","healthcare":"pharmacy","name":"Castoldi sas","operator":"Dr.ssa Natale Rosalia & c.","ref:msal":"17205","ref:vatin":"IT06197990960","source":"Ministero della Sanità","wheelchair":"no"},"geometry":{"type":"Point","coordinates":[9.1888085,45.4890824]}},{"type":"Feature","id":"node/358880159","properties":{"type":"node","id":358880159,"tags":{"addr:city":"Milano","addr:country":"IT","addr:housenumber":"1","addr:postcode":"20159","addr:street":"Via Arnaldo da Brescia","amenity":"pharmacy","dispensing":"yes","healthcare":"pharmacy","name":"Farmacia Farini","operator":"Dr.Ssa Travierso Antonietta & c.","ref:msal":"2948","ref:vatin":"IT05488940965","source":"Ministero della Salute","wheelchair":"no"},"relations":[],"meta":{},"addr:city":"Milano","addr:country":"IT","addr:housenumber":"1","addr:postcode":"20159","addr:street":"Via Arnaldo da Brescia","amenity":"pharmacy","dispensing":"yes","healthcare":"pharmacy","name":"Farmacia Farini","operator":"Dr.Ssa Travierso Antonietta & c.","ref:msal":"2948","ref:vatin":"IT05488940965","source":"Ministero della Salute","wheelchair":"no"},"geometry":{"type":"Point","coordinates":[9.1832224,45.4900947]}},{"type":"Feature","id":"node/2104097109","properties":{"type":"node","id":2104097109,"tags":{"addr:city":"Milano","addr:housenumber":"69","addr:postcode":"20159","addr:street":"Via Carlo Farini","amenity":"pharmacy","dispensing":"yes","healthcare":"pharmacy","name":"Maccioni","operator":"Patrizia Maccioni E Catia Maccioni","ref:msal":"2994","ref:vatin":"IT13148090155","source":"Ministero della Salute","wheelchair":"no"},"relations":[],"meta":{},"addr:city":"Milano","addr:housenumber":"69","addr:postcode":"20159","addr:street":"Via Carlo Farini","amenity":"pharmacy","dispensing":"yes","healthcare":"pharmacy","name":"Maccioni","operator":"Patrizia Maccioni E Catia Maccioni","ref:msal":"2994","ref:vatin":"IT13148090155","source":"Ministero della Salute","wheelchair":"no"},"geometry":{"type":"Point","coordinates":[9.1847219,45.4935045]}},{"type":"Feature","id":"node/2419111883","properties":{"type":"node","id":2419111883,"tags":{"addr:city":"Milano","addr:country":"IT","addr:housenumber":"38","addr:postcode":"20124","addr:street":"Viale Zara","amenity":"pharmacy","contact:phone":"+39 02 6081454","dispensing":"yes","healthcare":"pharmacy","name":"Caddeo","operator":"Caddeo","ref:msal":"2854","ref:vatin":"IT09290410159","source":"Ministero della Salute","website":"https://www.farmaciacaddeo.it/index.asp","wheelchair":"yes"},"relations":[],"meta":{},"addr:city":"Milano","addr:country":"IT","addr:housenumber":"38","addr:postcode":"20124","addr:street":"Viale Zara","amenity":"pharmacy","contact:phone":"+39 02 6081454","dispensing":"yes","healthcare":"pharmacy","name":"Caddeo","operator":"Caddeo","ref:msal":"2854","ref:vatin":"IT09290410159","source":"Ministero della Salute","website":"https://www.farmaciacaddeo.it/index.asp","wheelchair":"yes"},"geometry":{"type":"Point","coordinates":[9.1930404,45.4921114]}},{"type":"Feature","id":"node/2419130561","properties":{"type":"node","id":2419130561,"tags":{"addr:city":"Milano","addr:housenumber":"12","addr:postcode":"20159","addr:street":"Via Genova Thaon Di Revel","amenity":"pharmacy","dispensing":"yes","healthcare":"pharmacy","name":"S. Maria alla Fontana","operator":"S. Maria alla Fontana","ref:msal":"2926","ref:vatin":"IT07617700153","source":"Ministero della Salute","website":"https://farmaciasantamariaallafontana.it/","wheelchair":"yes"},"relations":[],"meta":{},"addr:city":"Milano","addr:housenumber":"12","addr:postcode":"20159","addr:street":"Via Genova Thaon Di Revel","amenity":"pharmacy","dispensing":"yes","healthcare":"pharmacy","name":"S. Maria alla Fontana","operator":"S. Maria alla Fontana","ref:msal":"2926","ref:vatin":"IT07617700153","source":"Ministero della Salute","website":"https://farmaciasantamariaallafontana.it/","wheelchair":"yes"},"geometry":{"type":"Point","coordinates":[9.1888657,45.4924321]}},{"type":"Feature","id":"node/2719663639","properties":{"type":"node","id":2719663639,"tags":{"amenity":"dentist","healthcare":"dentist","name":"Centro Medico Odontoiatrico","opening_hours":"Tu-Fr 09:29-19:00; Mo 14:30-19:00; Sa 09:30-12:30"},"relations":[],"meta":{},"amenity":"dentist","healthcare":"dentist","name":"Centro Medico Odontoiatrico","opening_hours":"Tu-Fr 09:29-19:00; Mo 14:30-19:00; Sa 09:30-12:30"},"geometry":{"type":"Point","coordinates":[9.1915245,45.4916126]}},{"type":"Feature","id":"node/3386286626","properties":{"type":"node","id":3386286626,"tags":{"addr:city":"Milano","addr:country":"IT","addr:housenumber":"27","addr:postcode":"20159","addr:street":"Via Carlo Farini","amenity":"dentist","healthcare":"dentist","name":"DentalFarini","wheelchair":"no"},"relations":[],"meta":{},"addr:city":"Milano","addr:country":"IT","addr:housenumber":"27","addr:postcode":"20159","addr:street":"Via Carlo Farini","amenity":"dentist","healthcare":"dentist","name":"DentalFarini","wheelchair":"no"},"geometry":{"type":"Point","coordinates":[9.1827494,45.4889029]}},{"type":"Feature","id":"node/3521819699","properties":{"type":"node","id":3521819699,"tags":{"addr:city":"Milano","addr:country":"IT","addr:housenumber":"12","addr:postcode":"20159","addr:street":"Via Valtellina","amenity":"doctors","email":"Info@ethosnet.it","fax":"+39 02 6071215","healthcare":"doctor","name":"Ethos","opening_hours":"Mo-Fr 08:30-18:30","phone":"+39 02 6071222","website":"http://www.ethosnet.it/"},"relations":[],"meta":{},"addr:city":"Milano","addr:country":"IT","addr:housenumber":"12","addr:postcode":"20159","addr:street":"Via Valtellina","amenity":"doctors","email":"Info@ethosnet.it","fax":"+39 02 6071215","healthcare":"doctor","name":"Ethos","opening_hours":"Mo-Fr 08:30-18:30","phone":"+39 02 6071222","website":"http://www.ethosnet.it/"},"geometry":{"type":"Point","coordinates":[9.1816087,45.4902216]}},{"type":"Feature","id":"node/3976145958","properties":{"type":"node","id":3976145958,"tags":{"addr:city":"Milano","addr:country":"IT","addr:housenumber":"3","addr:postcode":"20159","addr:street":"Piazza Fidia","amenity":"dentist","brand":"Vitaldent","brand:wikidata":"Q5860599","brand:wikipedia":"es:Vitaldent","email":"reception.milan2@vitaldent.com","healthcare":"dentist","name":"Vitaldent","phone":"+39 02 66802100"},"relations":[],"meta":{},"addr:city":"Milano","addr:country":"IT","addr:housenumber":"3","addr:postcode":"20159","addr:street":"Piazza Fidia","amenity":"dentist","brand":"Vitaldent","brand:wikidata":"Q5860599","brand:wikipedia":"es:Vitaldent","email":"reception.milan2@vitaldent.com","healthcare":"dentist","name":"Vitaldent","phone":"+39 02 66802100"},"geometry":{"type":"Point","coordinates":[9.1855783,45.4894655]}},{"type":"Feature","id":"way/427919438","properties":{"type":"way","id":427919438,"tags":{"amenity":"hospital","check_date":"2024-04-14","healthcare":"hospital","name":"Humanitas San Pio X","phone":"+39 02 69511","website":"https://www.humanitas-sanpiox.it/"},"relations":[],"meta":{},"geometry":"center","amenity":"hospital","check_date":"2024-04-14","healthcare":"hospital","name":"Humanitas San Pio X","phone":"+39 02 69511","website":"https://www.humanitas-sanpiox.it/"},"geometry":{"type":"Point","coordinates":[9.189372,45.4947802]}}]}