{"type":"FeatureCollection","features":[{"type":"Feature","id":"node/2491568216","properties":{"type":"node","id":2491568216,"tags":{"addr:city":"Milano","addr:housenumber":"21","addr:postcode":"20159","addr:street":"Via Gian Antonio Boltraffio","amenity":"theatre","contact:facebook":"https://www.facebook.com/teatro.fontana","contact:instagram":"teatrofontana","email":"fontana.teatro@elsinor.net","name":"Teatro Fontana","name:en":"Fontana Theater","name:it":"Teatro Fontana","phone":"+39 02 69015733","website":"https://www.teatrosalafontana.it/home.html"},"relations":[],"meta":{},"addr:city":"Milano","addr:housenumber":"21","addr:postcode":"20159","addr:street":"Via Gian Antonio Boltraffio","amenity":"theatre","contact:facebook":"https://www.facebook.com/teatro.fontana","contact:instagram":"teatrofontana","email":"fontana.teatro@elsinor.net","name":"Teatro Fontana","name:en":"Fontana Theater","name:it":"Teatro Fontana","phone":"+39 02 69015733","website":"https://www.teatrosalafontana.it/home.html"},"geometry":{"type":"Point","coordinates":[9.1877409,45.4921705]}}]}