{"type":"FeatureCollection","features":[{"type":"Feature","id":"node/308832288","properties":{"type":"node","id":308832288,"tags":{"addr:city":"Milano","addr:housenumber":"28","addr:postcode":"20159","addr:street":"Via Luigi Porro Lambertenghi","amenity":"place_of_worship","denomination":"methodist","name":"Chiesa Evangelica Metodista","religion":"christian","wheelchair":"yes"},"relations":[],"meta":{},"addr:city":"Milano","addr:housenumber":"28","addr:postcode":"20159","addr:street":"Via Luigi Porro Lambertenghi","amenity":"place_of_worship","denomination":"methodist","name":"Chiesa Evangelica Metodista","religion":"christian","wheelchair":"yes"},"geometry":{"type":"Point","coordinates":[9.1881683,45.4889444]}},{"type":"Feature","id":"way/40437374","properties":{"type":"way","id":40437374,"tags":{"amenity":"place_of_worship","building":"church","denomination":"catholic","name":"Santa Maria alla Fontana","religion":"christian","wikidata":"Q3673634","wikimedia_commons":"Category:Santa Maria alla Fontana (Milan)","wikipedia":"it:Chiesa di Santa Maria alla Fontana"},"relations":[],"meta":{},"geometry":"center","amenity":"place_of_worship","building":"church","denomination":"catholic","name":"Santa Maria alla Fontana","religion":"christian","wikidata":"Q3673634","wikimedia_commons":"Category:Santa Maria alla Fontana (Milan)","wikipedia":"it:Chiesa di Santa Maria alla Fontana"},"geometry":{"type":"Point","coordinates":[9.1876976,45.4925124]}}]}