{"type":"FeatureCollection","features":[{"type":"Feature","id":"node/281727031","properties":{"type":"node","id":281727031,"tags":{"addr:housenumber":"79","addr:postcode":"20159","addr:street":"Via Carlo Farini","amenity":"fast_food","brand":"McDonald's","brand:wikidata":"Q38076","brand:wikipedia":"en:McDonald's","contact:phone":"+39 02 69018449","cuisine":"burger","delivery":"yes","name":"McDonald's","note:it":"indirizzo riportato su scontrino:\"Via Farini 79/81\"","operator":"EuroRistoro s.r.l.","ref:vatin":"IT01075950194","takeaway":"yes","wheelchair":"yes"},"relations":[],"meta":{},"addr:housenumber":"79","addr:postcode":"20159","addr:street":"Via Carlo Farini","amenity":"fast_food","brand":"McDonald's","brand:wikidata":"Q38076","brand:wikipedia":"en:McDonald's","contact:phone":"+39 02 69018449","cuisine":"burger","delivery":"yes","name":"McDonald's","note:it":"indirizzo riportato su scontrino:\"Via Farini 79/81\"","operator":"EuroRistoro s.r.l.","ref:vatin":"IT01075950194","takeaway":"yes","wheelchair":"yes"},"geometry":{"type":"Point","coordinates":[9.1849812,45.4949556]}},{"type":"Feature","id":"node/281819178","properties":{"type":"node","id":281819178,"tags":{"addr:city":"Milano","addr:country":"IT","addr:housenumber":"35","addr:postcode":"20159","addr:street":"Via Pietro Borsieri","amenity":"pub","name":"Nordest","opening_hours":"08:00 - 01:00","outdoor_seating":"yes","phone":"+39 02 6900 1910","smoking":"outside","wheelchair":"no"},"relations":[],"meta":{},"addr:city":"Milano","addr:country":"IT","addr:housenumber":"35","addr:postcode":"20159","addr:street":"Via Pietro Borsieri","amenity":"pub","name":"Nordest","opening_hours":"08:00 - 01:00","outdoor_seating":"yes","phone":"+39 02 6900 1910","smoking":"outside","wheelchair":"no"},"geometry":{"type":"Point","coordinates":[9.1888396,45.4893238]}},{"type":"Feature","id":"node/282314357","properties":{"type":"node","id":282314357,"tags":{"amenity":"drinking_water","created_by":"JOSM"},"relations":[],"meta":{},"amenity":"drinking_water","created_by":"JOSM"},"geometry":{"type":"Point","coordinates":[9.1909798,45.4891677]}},{"type":"Feature","id":"node/320075111","properties":{"type":"node","id":320075111,"tags":{"amenity":"restaurant"},"relations":[],"meta":{},"amenity":"restaurant"},"geometry":{"type":"Point","coordinates":[9.1889659,45.4899689]}},{"type":"Feature","id":"node/340096546","properties":{"type":"node","id":340096546,"tags":{"addr:city":"Milano","addr:housenumber":"3","addr:postcode":"20159","addr:street":"Via Antonio Pollaiuolo","amenity":"pub","name":"Frida","opening_hours":"Mo-Fr 10:00-15:00,18:00-02:00; Sa 16:00-02:00; Su 12:00-01:00","phone":"+39 02 680260","smoking":"outside","website":"http://www.fridaisola.it/","wheelchair":"limited"},"relations":[],"meta":{},"addr:city":"Milano","addr:housenumber":"3","addr:postcode":"20159","addr:street":"Via Antonio Pollaiuolo","amenity":"pub","name":"Frida","opening_hours":"Mo-Fr 10:00-15:00,18:00-02:00; Sa 16:00-02:00; Su 12:00-01:00","phone":"+39 02 680260","smoking":"outside","website":"http://www.fridaisola.it/","wheelchair":"limited"},"geometry":{"type":"Point","coordinates":[9.187111,45.4887512]}},{"type":"Feature","id":"node/358880160","properties":{"type":"node","id":358880160,"tags":{"addr:city":"Milano","addr:country":"IT","addr:housenumber":"1/A","addr:postcode":"20159","addr:street":"Via Ugo Bassi","amenity":"restaurant","cuisine":"burger","name":"Meat me","wheelchair":"no"},"relations":[],"meta":{},"addr:city":"Milano","addr:country":"IT","addr:housenumber":"1/A","addr:postcode":"20159","addr:street":"Via Ugo Bassi","amenity":"restaurant","cuisine":"burger","name":"Meat me","wheelchair":"no"},"geometry":{"type":"Point","coordinates":[9.1830352,45.4888473]}},{"type":"Feature","id":"node/1002628831","properties":{"type":"node","id":1002628831,"tags":{"addr:city":"Milano","addr:housenumber":"71","addr:street":"Via Carlo Farini","amenity":"cafe","contact:phone":"+39 02 6687620","name":"Small Café","operator":"Small Café di Mao Guangliang","ref:vatin":"IT05909671215","wheelchair":"no"},"relations":[],"meta":{},"addr:city":"Milano","addr:housenumber":"71","addr:street":"Via Carlo Farini","amenity":"cafe","contact:phone":"+39 02 6687620","name":"Small Café","operator":"Small Café di Mao Guangliang","ref:vatin":"IT05909671215","wheelchair":"no"},"geometry":{"type":"Point","coordinates":[9.1848747,45.4938763]}},{"type":"Feature","id":"node/2093480255","properties":{"type":"node","id":2093480255,"tags":{"amenity":"pub","microbrewery":"yes","name":"Spiller"},"relations":[],"meta":{},"amenity":"pub","microbrewery":"yes","name":"Spiller"},"geometry":{"type":"Point","coordinates":[9.1859892,45.4911256]}},{"type":"Feature","id":"node/2104112893","properties":{"type":"node","id":2104112893,"tags":{"addr:city":"Milano","addr:country":"IT","addr:housenumber":"27","addr:postcode":"20159","addr:street":"Via Carlo Farini","amenity":"restaurant","cuisine":"italian","name":"Osteria Scalo Farini","phone":"+39 02 39543506","website":"https://www.scalofarini.it/","wheelchair":"no"},"relations":[],"meta":{},"addr:city":"Milano","addr:country":"IT","addr:housenumber":"27","addr:postcode":"20159","addr:street":"Via Carlo Farini","amenity":"restaurant","cuisine":"italian","name":"Osteria Scalo Farini","phone":"+39 02 39543506","website":"https://www.scalofarini.it/","wheelchair":"no"},"geometry":{"type":"Point","coordinates":[9.1826076,45.4887822]}},{"type":"Feature","id":"node/2106515265","properties":{"type":"node","id":2106515265,"tags":{"addr:city":"Milano","addr:country":"IT","addr:housenumber":"18","addr:postcode":"20159","addr:street":"Via Medardo Rosso","amenity":"pub","internet_access":"wlan","internet_access:fee":"no","name":"Isola Della Birra","website":"http://www.isoladellabirra.com"},"relations":[],"meta":{},"addr:city":"Milano","addr:country":"IT","addr:housenumber":"18","addr:postcode":"20159","addr:street":"Via Medardo Rosso","amenity":"pub","internet_access":"wlan","internet_access:fee":"no","name":"Isola Della Birra","website":"http://www.isoladellabirra.com"},"geometry":{"type":"Point","coordinates":[9.1853194,45.4897114]}},{"type":"Feature","id":"node/2197772532","properties":{"type":"node","id":2197772532,"tags":{"addr:city":"Milano","addr:housenumber":"23","addr:postcode":"20159","addr:street":"Via Luigi Porro Lambertenghi","amenity":"restaurant","cuisine":"indian","name":"Taj Mahal","wheelchair":"no"},"relations":[],"meta":{},"addr:city":"Milano","addr:housenumber":"23","addr:postcode":"20159","addr:street":"Via Luigi Porro Lambertenghi","amenity":"restaurant","cuisine":"indian","name":"Taj Mahal","wheelchair":"no"},"geometry":{"type":"Point","coordinates":[9.1880636,45.4891421]}},{"type":"Feature","id":"node/2419130541","properties":{"type":"node","id":2419130541,"tags":{"amenity":"restaurant","cuisine":"italian","name":"Pizzeria Alla Fontana","outdoor_seating":"yes","wheelchair":"limited"},"relations":[],"meta":{},"amenity":"restaurant","cuisine":"italian","name":"Pizzeria Alla Fontana","outdoor_seating":"yes","wheelchair":"limited"},"geometry":{"type":"Point","coordinates":[9.1886628,45.4925972]}},{"type":"Feature","id":"node/2419130554","properties":{"type":"node","id":2419130554,"tags":{"addr:housenumber":"9","addr:postcode":"20159","addr:street":"Via Genova Thaon Di Revel","amenity":"restaurant","cuisine":"italian","email":"osterialnove@osterialnove.com","name":"Osteria al Nove","opening_hours":"Mo-Fr 12:00-15:00; Mo-Sa 20:00-23:00","operator":"Biscotto S.R.L.","phone":"+39 02 66825162","ref:vatin":"IT05321010968","website":"https://osterialnove.com/","wheelchair":"no"},"relations":[],"meta":{},"addr:housenumber":"9","addr:postcode":"20159","addr:street":"Via Genova Thaon Di Revel","amenity":"restaurant","cuisine":"italian","email":"osterialnove@osterialnove.com","name":"Osteria al Nove","opening_hours":"Mo-Fr 12:00-15:00; Mo-Sa 20:00-23:00","operator":"Biscotto S.R.L.","phone":"+39 02 66825162","ref:vatin":"IT05321010968","website":"https://osterialnove.com/","wheelchair":"no"},"geometry":{"type":"Point","coordinates":[9.188719,45.4918116]}},{"type":"Feature","id":"node/2419130557","properties":{"type":"node","id":2419130557,"tags":{"amenity":"restaurant","cuisine":"pizza","name":"Pizzeria alla Fontana"},"relations":[],"meta":{},"amenity":"restaurant","cuisine":"pizza","name":"Pizzeria alla Fontana"},"geometry":{"type":"Point","coordinates":[9.1883609,45.4930183]}},{"type":"Feature","id":"node/2419130558","properties":{"type":"node","id":2419130558,"tags":{"addr:city":"Milano","addr:housenumber":"10","addr:postcode":"20159","addr:street":"Via Genova Thaon Di Revel","amenity":"restaurant","name":"Ristorante al Tronco","phone":"+39 02 606072","website":"altronco.it","wheelchair":"no"},"relations":[],"meta":{},"addr:city":"Milano","addr:housenumber":"10","addr:postcode":"20159","addr:street":"Via Genova Thaon Di Revel","amenity":"restaurant","name":"Ristorante al Tronco","phone":"+39 02 606072","website":"altronco.it","wheelchair":"no"},"geometry":{"type":"Point","coordinates":[9.1888927,45.4921349]}},{"type":"Feature","id":"node/2419130560","properties":{"type":"node","id":2419130560,"tags":{"addr:city":"Milano","addr:country":"IT","addr:housenumber":"13","addr:postcode":"20159","addr:street":"Viale Zara","amenity":"restaurant","brand":"Old Wild West","brand:wikidata":"Q25402475","brand:wikipedia":"it:Old Wild West","cuisine":"american","email":"zara@oldwildwest.it","name":"Old Wild West","opening_hours":"Mo-Su 12:00-15:00,19:00-23:00","phone":"+39 02 69004434","website":"http://www.oldwildwest.it/code/20026/Milano-Zara","wheelchair":"limited"},"relations":[],"meta":{},"addr:city":"Milano","addr:country":"IT","addr:housenumber":"13","addr:postcode":"20159","addr:street":"Viale Zara","amenity":"restaurant","brand":"Old Wild West","brand:wikidata":"Q25402475","brand:wikipedia":"it:Old Wild West","cuisine":"american","email":"zara@oldwildwest.it","name":"Old Wild West","opening_hours":"Mo-Su 12:00-15:00,19:00-23:00","phone":"+39 02 69004434","website":"http://www.oldwildwest.it/code/20026/Milano-Zara","wheelchair":"limited"},"geometry":{"type":"Point","coordinates":[9.1917798,45.491624]}},{"type":"Feature","id":"node/2438765690","properties":{"type":"node","id":2438765690,"tags":{"addr:city":"Milano","addr:country":"IT","addr:housenumber":"25","addr:postcode":"20159","addr:street":"Via Pietro Borsieri","amenity":"ice_cream","name":"Gelateria Borsieri","wheelchair":"no"},"relations":[],"meta":{},"addr:city":"Milano","addr:country":"IT","addr:housenumber":"25","addr:postcode":"20159","addr:street":"Via Pietro Borsieri","amenity":"ice_cream","name":"Gelateria Borsieri","wheelchair":"no"},"geometry":{"type":"Point","coordinates":[9.1887376,45.4883426]}},{"type":"Feature","id":"node/2438861357","properties":{"type":"node","id":2438861357,"tags":{"addr:city":"Milano","addr:country":"IT","addr:housenumber":"4","addr:postcode":"20159","addr:street":"Piazzale Lagosta","amenity":"cafe","cuisine":"ice_cream","name":"Il Caffè Ambrosiano","wheelchair":"limited"},"relations":[],"meta":{},"addr:city":"Milano","addr:country":"IT","addr:housenumber":"4","addr:postcode":"20159","addr:street":"Piazzale Lagosta","amenity":"cafe","cuisine":"ice_cream","name":"Il Caffè Ambrosiano","wheelchair":"limited"},"geometry":{"type":"Point","coordinates":[9.1912705,45.4887645]}},{"type":"Feature","id":"node/2438877458","properties":{"type":"node","id":2438877458,"tags":{"addr:city":"Milano","addr:country":"IT","addr:housenumber":"24","addr:postcode":"20159","addr:street":"Via Pietro Borsieri","amenity":"pub","name":"Pub24","wheelchair":"no"},"relations":[],"meta":{},"addr:city":"Milano","addr:country":"IT","addr:housenumber":"24","addr:postcode":"20159","addr:street":"Via Pietro Borsieri","amenity":"pub","name":"Pub24","wheelchair":"no"},"geometry":{"type":"Point","coordinates":[9.1891153,45.488411]}},{"type":"Feature","id":"node/2446058904","properties":{"type":"node","id":2446058904,"tags":{"addr:city":"Milano","addr:country":"IT","addr:housenumber":"28","addr:postcode":"20159","addr:street":"Via Pietro Borsieri","amenity":"restaurant","cuisine":"pizza","name":"La Balena","wheelchair":"limited"},"relations":[],"meta":{},"addr:city":"Milano","addr:country":"IT","addr:housenumber":"28","addr:postcode":"20159","addr:street":"Via Pietro Borsieri","amenity":"restaurant","cuisine":"pizza","name":"La Balena","wheelchair":"limited"},"geometry":{"type":"Point","coordinates":[9.1892147,45.4888176]}},{"type":"Feature","id":"node/2446058951","properties":{"type":"node","id":2446058951,"tags":{"addr:city":"Milano","addr:country":"IT","addr:housenumber":"8","addr:postcode":"20159","addr:street":"Via Garigliano","amenity":"bar","name":"Golden Gate"},"relations":[],"meta":{},"addr:city":"Milano","addr:country":"IT","addr:housenumber":"8","addr:postcode":"20159","addr:street":"Via Garigliano","amenity":"bar","name":"Golden Gate"},"geometry":{"type":"Point","coordinates":[9.1897826,45.4881372]}},{"type":"Feature","id":"node/2479437271","properties":{"type":"node","id":2479437271,"tags":{"addr:city":"Milano","addr:housenumber":"4","addr:postcode":"20159","addr:street":"Via Angelo della Pergola","amenity":"restaurant","cuisine":"seafood","name":"L'Isola del gusto","website":"http://www.lisoladelgusto.info/?page_id=12","wheelchair":"limited"},"relations":[],"meta":{},"addr:city":"Milano","addr:housenumber":"4","addr:postcode":"20159","addr:street":"Via Angelo della Pergola","amenity":"restaurant","cuisine":"seafood","name":"L'Isola del gusto","website":"http://www.lisoladelgusto.info/?page_id=12","wheelchair":"limited"},"geometry":{"type":"Point","coordinates":[9.1882639,45.4881423]}},{"type":"Feature","id":"node/2488613454","properties":{"type":"node","id":2488613454,"tags":{"addr:city":"Milano","addr:country":"IT","addr:housenumber":"26","addr:postcode":"20159","addr:street":"Via Pietro Borsieri","amenity":"fast_food","cuisine":"turkish","name":"Turkish Kebap","wheelchair":"no"},"relations":[],"meta":{},"addr:city":"Milano","addr:country":"IT","addr:housenumber":"26","addr:postcode":"20159","addr:street":"Via Pietro Borsieri","amenity":"fast_food","cuisine":"turkish","name":"Turkish Kebap","wheelchair":"no"},"geometry":{"type":"Point","coordinates":[9.1891427,45.4886115]}},{"type":"Feature","id":"node/2488613455","properties":{"type":"node","id":2488613455,"tags":{"addr:city":"Milano","addr:housenumber":"34","addr:postcode":"20159","addr:street":"Via Luigi Porro Lambertenghi","amenity":"restaurant","cuisine":"seafood","name":"Il Cormorano","outdoor_seating":"yes","wheelchair":"yes"},"relations":[],"meta":{},"addr:city":"Milano","addr:housenumber":"34","addr:postcode":"20159","addr:street":"Via Luigi Porro Lambertenghi","amenity":"restaurant","cuisine":"seafood","name":"Il Cormorano","outdoor_seating":"yes","wheelchair":"yes"},"geometry":{"type":"Point","coordinates":[9.1886814,45.4888963]}},{"type":"Feature","id":"node/2488613457","properties":{"type":"node","id":2488613457,"tags":{"addr:city":"Milano","addr:country":"IT","addr:housenumber":"27","addr:postcode":"20159","addr:street":"Via Pietro Borsieri","amenity":"restaurant","cuisine":"greek;fish","name":"Il Pesciolone","wheelchair":"no"},"relations":[],"meta":{},"addr:city":"Milano","addr:country":"IT","addr:housenumber":"27","addr:postcode":"20159","addr:street":"Via Pietro Borsieri","amenity":"restaurant","cuisine":"greek;fish","name":"Il Pesciolone","wheelchair":"no"},"geometry":{"type":"Point","coordinates":[9.1887604,45.4885109]}},{"type":"Feature","id":"node/2488621616","properties":{"type":"node","id":2488621616,"tags":{"addr:city":"Milano","addr:housenumber":"19","addr:postcode":"20159","addr:street":"Via Luigi Porro Lambertenghi","amenity":"bar","cuisine":"regional","name":"Beer Garden","phone":"+39 02 7378447","wheelchair":"limited"},"relations":[],"meta":{},"addr:city":"Milano","addr:housenumber":"19","addr:postcode":"20159","addr:street":"Via Luigi Porro Lambertenghi","amenity":"bar","cuisine":"regional","name":"Beer Garden","phone":"+39 02 7378447","wheelchair":"limited"},"geometry":{"type":"Point","coordinates":[9.18741,45.4892]}},{"type":"Feature","id":"node/2488621656","properties":{"type":"node","id":2488621656,"tags":{"addr:city":"Milano","addr:housenumber":"24","addr:postcode":"20159","addr:street":"Via Luigi Porro Lambertenghi","amenity":"restaurant","cuisine":"italian","name":"Il Bue e la Patata","wheelchair":"no"},"relations":[],"meta":{},"addr:city":"Milano","addr:housenumber":"24","addr:postcode":"20159","addr:street":"Via Luigi Porro Lambertenghi","amenity":"restaurant","cuisine":"italian","name":"Il Bue e la Patata","wheelchair":"no"},"geometry":{"type":"Point","coordinates":[9.1877761,45.4889791]}},{"type":"Feature","id":"node/2488644315","properties":{"type":"node","id":2488644315,"tags":{"addr:city":"Milano","addr:housenumber":"19","addr:postcode":"20159","addr:street":"Via Medardo Rosso","amenity":"restaurant","cuisine":"sushi","name":"Gen Kai","website":"http://www.genkai-sushi.it/","wheelchair":"limited"},"relations":[],"meta":{},"addr:city":"Milano","addr:housenumber":"19","addr:postcode":"20159","addr:street":"Via Medardo Rosso","amenity":"restaurant","cuisine":"sushi","name":"Gen Kai","website":"http://www.genkai-sushi.it/","wheelchair":"limited"},"geometry":{"type":"Point","coordinates":[9.1858114,45.4895874]}},{"type":"Feature","id":"node/2488649742","properties":{"type":"node","id":2488649742,"tags":{"addr:city":"Milano","addr:housenumber":"26","addr:postcode":"20159","addr:street":"Via Cola Montano","amenity":"fast_food","cuisine":"burger","name":"Burger Italy","phone":"+39 02 680710","wheelchair":"yes"},"relations":[],"meta":{},"addr:city":"Milano","addr:housenumber":"26","addr:postcode":"20159","addr:street":"Via Cola Montano","amenity":"fast_food","cuisine":"burger","name":"Burger Italy","phone":"+39 02 680710","wheelchair":"yes"},"geometry":{"type":"Point","coordinates":[9.186077,45.4895356]}},{"type":"Feature","id":"node/2488654835","properties":{"type":"node","id":2488654835,"tags":{"addr:city":"Milano","addr:housenumber":"22","addr:postcode":"20159","addr:street":"Via Ugo Bassi","amenity":"restaurant","name":"Sapori di Casa","wheelchair":"limited"},"relations":[],"meta":{},"addr:city":"Milano","addr:housenumber":"22","addr:postcode":"20159","addr:street":"Via Ugo Bassi","amenity":"restaurant","name":"Sapori di Casa","wheelchair":"limited"},"geometry":{"type":"Point","coordinates":[9.1869755,45.4895582]}},{"type":"Feature","id":"node/2488665000","properties":{"type":"node","id":2488665000,"tags":{"addr:city":"Milano","addr:housenumber":"5","addr:postcode":"20159","addr:street":"Piazzale Segrino","amenity":"restaurant","name":"Avocado Milano","wheelchair":"no"},"relations":[],"meta":{},"addr:city":"Milano","addr:housenumber":"5","addr:postcode":"20159","addr:street":"Piazzale Segrino","amenity":"restaurant","name":"Avocado Milano","wheelchair":"no"},"geometry":{"type":"Point","coordinates":[9.1886948,45.4904965]}},{"type":"Feature","id":"node/2488665014","properties":{"type":"node","id":2488665014,"tags":{"addr:city":"Milano","addr:housenumber":"30","addr:postcode":"20159","addr:street":"Via Alserio","amenity":"restaurant","cuisine":"pizza","name":"Ristorante Pizzeria Segrino","outdoor_seating":"yes","wheelchair":"limited"},"relations":[],"meta":{},"addr:city":"Milano","addr:housenumber":"30","addr:postcode":"20159","addr:street":"Via Alserio","amenity":"restaurant","cuisine":"pizza","name":"Ristorante Pizzeria Segrino","outdoor_seating":"yes","wheelchair":"limited"},"geometry":{"type":"Point","coordinates":[9.1885848,45.4902736]}},{"type":"Feature","id":"node/2491540244","properties":{"type":"node","id":2491540244,"tags":{"addr:city":"Milano","addr:housenumber":"19","addr:postcode":"20159","addr:street":"Via Alserio","amenity":"cafe","name":"Floridita Cafè","wheelchair":"limited"},"relations":[],"meta":{},"addr:city":"Milano","addr:housenumber":"19","addr:postcode":"20159","addr:street":"Via Alserio","amenity":"cafe","name":"Floridita Cafè","wheelchair":"limited"},"geometry":{"type":"Point","coordinates":[9.1873379,45.4908158]}},{"type":"Feature","id":"node/2491545064","properties":{"type":"node","id":2491545064,"tags":{"addr:city":"Milano","addr:housenumber":"9","addr:postcode":"20159","addr:street":"Via Alserio","amenity":"restaurant","contact:email":"info@sticaus.it","contact:phone":"+39 02 84929294","name":"Sticaus","opening_hours":"Su-Fr 12:00-14:30,19:30-02:00; Sa 19:30-02:00","payment:bitcoin":"yes","wheelchair":"no"},"relations":[],"meta":{},"addr:city":"Milano","addr:housenumber":"9","addr:postcode":"20159","addr:street":"Via Alserio","amenity":"restaurant","contact:email":"info@sticaus.it","contact:phone":"+39 02 84929294","name":"Sticaus","opening_hours":"Su-Fr 12:00-14:30,19:30-02:00; Sa 19:30-02:00","payment:bitcoin":"yes","wheelchair":"no"},"geometry":{"type":"Point","coordinates":[9.1861202,45.4911505]}},{"type":"Feature","id":"node/2491545085","properties":{"type":"node","id":2491545085,"tags":{"addr:city":"Milano","addr:housenumber":"40","addr:postcode":"20159","addr:street":"Via Cola Montano","amenity":"cafe","name":"Soleluna Cafè"},"relations":[],"meta":{},"addr:city":"Milano","addr:housenumber":"40","addr:postcode":"20159","addr:street":"Via Cola Montano","amenity":"cafe","name":"Soleluna Cafè"},"geometry":{"type":"Point","coordinates":[9.1863829,45.491411]}},{"type":"Feature","id":"node/2491555592","properties":{"type":"node","id":2491555592,"tags":{"addr:city":"Milano","addr:housenumber":"9","addr:postcode":"20159","addr:street":"Via Vincenzo Civerchio","amenity":"restaurant","email":"info@trattoriailmarinaio.it","name":"Trattoria Il Marinaio","phone":"+39 02 6884985","website":"http://www.trattoriailmarinaio.it/"},"relations":[],"meta":{},"addr:city":"Milano","addr:housenumber":"9","addr:postcode":"20159","addr:street":"Via Vincenzo Civerchio","amenity":"restaurant","email":"info@trattoriailmarinaio.it","name":"Trattoria Il Marinaio","phone":"+39 02 6884985","website":"http://www.trattoriailmarinaio.it/"},"geometry":{"type":"Point","coordinates":[9.1877416,45.4913253]}},{"type":"Feature","id":"node/2491579508","properties":{"type":"node","id":2491579508,"tags":{"amenity":"drinking_water"},"relations":[],"meta":{},"amenity":"drinking_water"},"geometry":{"type":"Point","coordinates":[9.1870911,45.4922053]}},{"type":"Feature","id":"node/2535455873","properties":{"type":"node","id":2535455873,"tags":{"addr:housenumber":"51","addr:street":"Viale Stelvio","amenity":"restaurant","cuisine":"chinese","name":"Fang Jong","phone":"+39 02 69007886; +39 333 6913922","wheelchair":"limited"},"relations":[],"meta":{},"addr:housenumber":"51","addr:street":"Viale Stelvio","amenity":"restaurant","cuisine":"chinese","name":"Fang Jong","phone":"+39 02 69007886; +39 333 6913922","wheelchair":"limited"},"geometry":{"type":"Point","coordinates":[9.1847273,45.4945418]}},{"type":"Feature","id":"node/2535463882","properties":{"type":"node","id":2535463882,"tags":{"addr:housenumber":"74","addr:postcode":"20139","addr:street":"Via Carlo Farini","amenity":"fast_food","cuisine":"chicken","name":"Chicken&Chicken","operator":"Zia maria s.r.l.","ref:vatin":"IT07520090965","wheelchair":"no"},"relations":[],"meta":{},"addr:housenumber":"74","addr:postcode":"20139","addr:street":"Via Carlo Farini","amenity":"fast_food","cuisine":"chicken","name":"Chicken&Chicken","operator":"Zia maria s.r.l.","ref:vatin":"IT07520090965","wheelchair":"no"},"geometry":{"type":"Point","coordinates":[9.1855506,45.4946806]}},{"type":"Feature","id":"node/2535463894","properties":{"type":"node","id":2535463894,"tags":{"amenity":"bar","name":"Bar SCOOBY"},"relations":[],"meta":{},"amenity":"bar","name":"Bar SCOOBY"},"geometry":{"type":"Point","coordinates":[9.1857262,45.4942815]}},{"type":"Feature","id":"node/2535469722","properties":{"type":"node","id":2535469722,"tags":{"amenity":"bar"},"relations":[],"meta":{},"amenity":"bar"},"geometry":{"type":"Point","coordinates":[9.1861975,45.4945005]}},{"type":"Feature","id":"node/2719663641","properties":{"type":"node","id":2719663641,"tags":{"amenity":"cafe","name":"Bar La Giada","wheelchair":"no"},"relations":[],"meta":{},"amenity":"cafe","name":"Bar La Giada","wheelchair":"no"},"geometry":{"type":"Point","coordinates":[9.1923021,45.4925602]}},{"type":"Feature","id":"node/2719663643","properties":{"type":"node","id":2719663643,"tags":{"amenity":"bar","name":"Bar Rainbow"},"relations":[],"meta":{},"amenity":"bar","name":"Bar Rainbow"},"geometry":{"type":"Point","coordinates":[9.1920124,45.4919237]}},{"type":"Feature","id":"node/2719663650","properties":{"type":"node","id":2719663650,"tags":{"addr:city":"Milano","addr:country":"IT","addr:housenumber":"9","addr:postcode":"20159","addr:street":"Piazzale Lagosta","amenity":"cafe","name":"Colt 45"},"relations":[],"meta":{},"addr:city":"Milano","addr:country":"IT","addr:housenumber":"9","addr:postcode":"20159","addr:street":"Piazzale Lagosta","amenity":"cafe","name":"Colt 45"},"geometry":{"type":"Point","coordinates":[9.1905598,45.4900375]}},{"type":"Feature","id":"node/2719698233","properties":{"type":"node","id":2719698233,"tags":{"addr:housenumber":"15","addr:street":"Via Porro Lambertenghi","amenity":"ice_cream","cuisine":"ice_cream","name":"Artico","operator":"Arcipelago del buon gusto SRL","phone":"+39 02 45494698","ref:vatin":"IT07694130969","shop":"ice_cream","takeaway":"yes","wheelchair":"limited"},"relations":[],"meta":{},"addr:housenumber":"15","addr:street":"Via Porro Lambertenghi","amenity":"ice_cream","cuisine":"ice_cream","name":"Artico","operator":"Arcipelago del buon gusto SRL","phone":"+39 02 45494698","ref:vatin":"IT07694130969","shop":"ice_cream","takeaway":"yes","wheelchair":"limited"},"geometry":{"type":"Point","coordinates":[9.1865705,45.4892583]}},{"type":"Feature","id":"node/2742685858","properties":{"type":"node","id":2742685858,"tags":{"amenity":"drinking_water"},"relations":[],"meta":{},"amenity":"drinking_water"},"geometry":{"type":"Point","coordinates":[9.1854234,45.4927466]}},{"type":"Feature","id":"node/2935373801","properties":{"type":"node","id":2935373801,"tags":{"addr:city":"Milano","addr:country":"IT","addr:postcode":"20159","addr:street":"Via Luigi Porro Lambertenghi","amenity":"bar","cuisine":"kebab","description":"pizza kebab","name":"Bar Bah","note":"access via Via Lambertenghi","smoking":"no","wheelchair":"limited"},"relations":[],"meta":{},"addr:city":"Milano","addr:country":"IT","addr:postcode":"20159","addr:street":"Via Luigi Porro Lambertenghi","amenity":"bar","cuisine":"kebab","description":"pizza kebab","name":"Bar Bah","note":"access via Via Lambertenghi","smoking":"no","wheelchair":"limited"},"geometry":{"type":"Point","coordinates":[9.1872235,45.489007]}},{"type":"Feature","id":"node/2947268067","properties":{"type":"node","id":2947268067,"tags":{"amenity":"bar"},"relations":[],"meta":{},"amenity":"bar"},"geometry":{"type":"Point","coordinates":[9.1884114,45.4940087]}},{"type":"Feature","id":"node/2964293266","properties":{"type":"node","id":2964293266,"tags":{"addr:city":"Milano","addr:housenumber":"8","addr:postcode":"20159","addr:street":"Via Antonio Pollaiuolo","amenity":"pub","name":"Wasabi","opening_hours":"21:00 - 2:00","smoking":"no","wheelchair":"limited"},"relations":[],"meta":{},"addr:city":"Milano","addr:housenumber":"8","addr:postcode":"20159","addr:street":"Via Antonio Pollaiuolo","amenity":"pub","name":"Wasabi","opening_hours":"21:00 - 2:00","smoking":"no","wheelchair":"limited"},"geometry":{"type":"Point","coordinates":[9.187804,45.4896876]}},{"type":"Feature","id":"node/3147151909","properties":{"type":"node","id":3147151909,"tags":{"addr:city":"Milano","addr:country":"IT","addr:housenumber":"3","addr:postcode":"20159","addr:street":"Via Garigliano","amenity":"restaurant","name":"Stravagario Bistrot","website":"http://www.stravagariobistrot.it/","wheelchair":"limited"},"relations":[],"meta":{},"addr:city":"Milano","addr:country":"IT","addr:housenumber":"3","addr:postcode":"20159","addr:street":"Via Garigliano","amenity":"restaurant","name":"Stravagario Bistrot","website":"http://www.stravagariobistrot.it/","wheelchair":"limited"},"geometry":{"type":"Point","coordinates":[9.1895636,45.4883623]}},{"type":"Feature","id":"node/3147175273","properties":{"type":"node","id":3147175273,"tags":{"addr:city":"Milano","addr:country":"IT","addr:housenumber":"1","addr:postcode":"20159","addr:street":"Piazzale Segrino","amenity":"restaurant","cuisine":"japanese","name":"Japonito","wheelchair":"limited"},"relations":[],"meta":{},"addr:city":"Milano","addr:country":"IT","addr:housenumber":"1","addr:postcode":"20159","addr:street":"Piazzale Segrino","amenity":"restaurant","cuisine":"japanese","name":"Japonito","wheelchair":"limited"},"geometry":{"type":"Point","coordinates":[9.1889095,45.4898963]}},{"type":"Feature","id":"node/3147175277","properties":{"type":"node","id":3147175277,"tags":{"addr:city":"Milano","addr:country":"IT","addr:housenumber":"39","addr:postcode":"20159","addr:street":"Via Pietro Borsieri","amenity":"restaurant","cuisine":"regional","name":"Osteria Borsieri","wheelchair":"no"},"relations":[],"meta":{},"addr:city":"Milano","addr:country":"IT","addr:housenumber":"39","addr:postcode":"20159","addr:street":"Via Pietro Borsieri","amenity":"restaurant","cuisine":"regional","name":"Osteria Borsieri","wheelchair":"no"},"geometry":{"type":"Point","coordinates":[9.188886,45.4896986]}},{"type":"Feature","id":"node/3147175278","properties":{"type":"node","id":3147175278,"tags":{"addr:city":"Milano","addr:country":"IT","addr:housenumber":"34","addr:postcode":"20159","addr:street":"Via Pietro Borsieri","amenity":"cafe","name":"Sciapò"},"relations":[],"meta":{},"addr:city":"Milano","addr:country":"IT","addr:housenumber":"34","addr:postcode":"20159","addr:street":"Via Pietro Borsieri","amenity":"cafe","name":"Sciapò"},"geometry":{"type":"Point","coordinates":[9.1892372,45.4896756]}},{"type":"Feature","id":"node/3147200461","properties":{"type":"node","id":3147200461,"tags":{"addr:city":"Milano","addr:country":"IT","addr:housenumber":"1","addr:postcode":"20159","addr:street":"Piazzale Lagosta","amenity":"cafe","name":"Il Gatto e la Volpe"},"relations":[],"meta":{},"addr:city":"Milano","addr:country":"IT","addr:housenumber":"1","addr:postcode":"20159","addr:street":"Piazzale Lagosta","amenity":"cafe","name":"Il Gatto e la Volpe"},"geometry":{"type":"Point","coordinates":[9.1901651,45.489843]}},{"type":"Feature","id":"node/3147205729","properties":{"type":"node","id":3147205729,"tags":{"addr:city":"Milano","addr:country":"IT","addr:housenumber":"46","addr:postcode":"20124","addr:street":"Via Volturno","amenity":"ice_cream","email":"gelateriadellisola@live.it","name":"Gelateria dell'Isola","phone":"+39 02 69001619","website":"http://www.gelateriasicilianadellisola.it/","wheelchair":"limited"},"relations":[],"meta":{},"addr:city":"Milano","addr:country":"IT","addr:housenumber":"46","addr:postcode":"20124","addr:street":"Via Volturno","amenity":"ice_cream","email":"gelateriadellisola@live.it","name":"Gelateria dell'Isola","phone":"+39 02 69001619","website":"http://www.gelateriasicilianadellisola.it/","wheelchair":"limited"},"geometry":{"type":"Point","coordinates":[9.1913071,45.4886398]}},{"type":"Feature","id":"node/3147207856","properties":{"type":"node","id":3147207856,"tags":{"addr:city":"Milano","addr:country":"IT","addr:housenumber":"6","addr:postcode":"20159","addr:street":"Piazzale Lagosta","amenity":"cafe","name":"Vintage Cafè","wheelchair":"no"},"relations":[],"meta":{},"addr:city":"Milano","addr:country":"IT","addr:housenumber":"6","addr:postcode":"20159","addr:street":"Piazzale Lagosta","amenity":"cafe","name":"Vintage Cafè","wheelchair":"no"},"geometry":{"type":"Point","coordinates":[9.191656,45.4892289]}},{"type":"Feature","id":"node/3368777733","properties":{"type":"node","id":3368777733,"tags":{"amenity":"cafe","cuisine":"coffee_shop"},"relations":[],"meta":{},"amenity":"cafe","cuisine":"coffee_shop"},"geometry":{"type":"Point","coordinates":[9.190051,45.4898765]}},{"type":"Feature","id":"node/3386281235","properties":{"type":"node","id":3386281235,"tags":{"addr:city":"Milano","addr:country":"IT","addr:housenumber":"30","addr:postcode":"20159","addr:street":"Via Carlo Farini","amenity":"pub","name":"The Good Life","wheelchair":"no"},"relations":[],"meta":{},"addr:city":"Milano","addr:country":"IT","addr:housenumber":"30","addr:postcode":"20159","addr:street":"Via Carlo Farini","amenity":"pub","name":"The Good Life","wheelchair":"no"},"geometry":{"type":"Point","coordinates":[9.1831976,45.4892647]}},{"type":"Feature","id":"node/3386285706","properties":{"type":"node","id":3386285706,"tags":{"addr:city":"Milano","addr:country":"IT","addr:housenumber":"33","addr:postcode":"20159","addr:street":"Via Carlo Farini","amenity":"bar","name":"Opera 33","wheelchair":"no"},"relations":[],"meta":{},"addr:city":"Milano","addr:country":"IT","addr:housenumber":"33","addr:postcode":"20159","addr:street":"Via Carlo Farini","amenity":"bar","name":"Opera 33","wheelchair":"no"},"geometry":{"type":"Point","coordinates":[9.1830758,45.4896401]}},{"type":"Feature","id":"node/3386286625","properties":{"type":"node","id":3386286625,"tags":{"addr:city":"Milano","addr:country":"IT","addr:housenumber":"3","addr:postcode":"20159","addr:street":"Piazza Fidia","amenity":"cafe","name":"Choice Cafe","wheelchair":"no"},"relations":[],"meta":{},"addr:city":"Milano","addr:country":"IT","addr:housenumber":"3","addr:postcode":"20159","addr:street":"Piazza Fidia","amenity":"cafe","name":"Choice Cafe","wheelchair":"no"},"geometry":{"type":"Point","coordinates":[9.1854789,45.4893611]}},{"type":"Feature","id":"node/3386286627","properties":{"type":"node","id":3386286627,"tags":{"addr:city":"Milano","addr:country":"IT","addr:housenumber":"1","addr:postcode":"20159","addr:street":"Via Luigi Porro Lambertenghi","amenity":"restaurant","cuisine":"seafood","name":"L'Angolino","wheelchair":"yes"},"relations":[],"meta":{},"addr:city":"Milano","addr:country":"IT","addr:housenumber":"1","addr:postcode":"20159","addr:street":"Via Luigi Porro Lambertenghi","amenity":"restaurant","cuisine":"seafood","name":"L'Angolino","wheelchair":"yes"},"geometry":{"type":"Point","coordinates":[9.1833367,45.4894684]}},{"type":"Feature","id":"node/3386286628","properties":{"type":"node","id":3386286628,"tags":{"addr:city":"Milano","addr:country":"IT","addr:housenumber":"31","addr:postcode":"20159","addr:street":"Via Carlo Farini","amenity":"restaurant","cuisine":"regional","email":"info@laquiladoro.it","fax":"+39 02 6070826","name":"L'Aquila d'Oro","phone":"+39 02 6080703","website":"http://www.laquiladoro.it/","wheelchair":"no"},"relations":[],"meta":{},"addr:city":"Milano","addr:country":"IT","addr:housenumber":"31","addr:postcode":"20159","addr:street":"Via Carlo Farini","amenity":"restaurant","cuisine":"regional","email":"info@laquiladoro.it","fax":"+39 02 6070826","name":"L'Aquila d'Oro","phone":"+39 02 6080703","website":"http://www.laquiladoro.it/","wheelchair":"no"},"geometry":{"type":"Point","coordinates":[9.182939,45.4893324]}},{"type":"Feature","id":"node/3386286646","properties":{"type":"node","id":3386286646,"tags":{"addr:city":"Milano","addr:country":"IT","addr:housenumber":"3","addr:postcode":"20159","addr:street":"Via Ugo Bassi","amenity":"restaurant","name":"Spago"},"relations":[],"meta":{},"addr:city":"Milano","addr:country":"IT","addr:housenumber":"3","addr:postcode":"20159","addr:street":"Via Ugo Bassi","amenity":"restaurant","name":"Spago"},"geometry":{"type":"Point","coordinates":[9.1839905,45.4889294]}},{"type":"Feature","id":"node/3386290583","properties":{"type":"node","id":3386290583,"tags":{"addr:city":"Milano","addr:country":"IT","addr:housenumber":"1","addr:postcode":"20159","addr:street":"Via Luigi Porro Lambertenghi","amenity":"fast_food","cuisine":"kebab;pizza","name":"4 Stelle","takeaway":"yes"},"relations":[],"meta":{},"addr:city":"Milano","addr:country":"IT","addr:housenumber":"1","addr:postcode":"20159","addr:street":"Via Luigi Porro Lambertenghi","amenity":"fast_food","cuisine":"kebab;pizza","name":"4 Stelle","takeaway":"yes"},"geometry":{"type":"Point","coordinates":[9.1836838,45.4894388]}},{"type":"Feature","id":"node/3521819299","properties":{"type":"node","id":3521819299,"tags":{"addr:city":"Milano","addr:country":"IT","addr:housenumber":"10","addr:postcode":"20159","addr:street":"Via Arnaldo da Brescia","amenity":"cafe","name":"Bar Dogana"},"relations":[],"meta":{},"addr:city":"Milano","addr:country":"IT","addr:housenumber":"10","addr:postcode":"20159","addr:street":"Via Arnaldo da Brescia","amenity":"cafe","name":"Bar Dogana"},"geometry":{"type":"Point","coordinates":[9.1815249,45.4906489]}},{"type":"Feature","id":"node/3521819300","properties":{"type":"node","id":3521819300,"tags":{"addr:city":"Milano","addr:country":"IT","addr:housenumber":"37","addr:postcode":"20159","addr:street":"Via Carlo Farini","amenity":"restaurant","cuisine":"pizza","name":"Il Desiderio 2","wheelchair":"no"},"relations":[],"meta":{},"addr:city":"Milano","addr:country":"IT","addr:housenumber":"37","addr:postcode":"20159","addr:street":"Via Carlo Farini","amenity":"restaurant","cuisine":"pizza","name":"Il Desiderio 2","wheelchair":"no"},"geometry":{"type":"Point","coordinates":[9.1831493,45.4898106]}},{"type":"Feature","id":"node/3521819309","properties":{"type":"node","id":3521819309,"tags":{"addr:city":"Milano","addr:country":"IT","addr:housenumber":"1","addr:postcode":"20159","addr:street":"Via Arnaldo da Brescia","amenity":"restaurant","name":"Viva la Vida"},"relations":[],"meta":{},"addr:city":"Milano","addr:country":"IT","addr:housenumber":"1","addr:postcode":"20159","addr:street":"Via Arnaldo da Brescia","amenity":"restaurant","name":"Viva la Vida"},"geometry":{"type":"Point","coordinates":[9.1830088,45.49017]}},{"type":"Feature","id":"node/3521819700","properties":{"type":"node","id":3521819700,"tags":{"addr:city":"Milano","addr:country":"IT","addr:housenumber":"27","addr:postcode":"20159","addr:street":"Via Carlo Farini","amenity":"cafe","name":"Farini Cafè 27","tobacco":"yes"},"relations":[],"meta":{},"addr:city":"Milano","addr:country":"IT","addr:housenumber":"27","addr:postcode":"20159","addr:street":"Via Carlo Farini","amenity":"cafe","name":"Farini Cafè 27","tobacco":"yes"},"geometry":{"type":"Point","coordinates":[9.1824849,45.4887963]}},{"type":"Feature","id":"node/3521849183","properties":{"type":"node","id":3521849183,"tags":{"addr:city":"Milano","addr:country":"IT","addr:housenumber":"4","addr:postcode":"20159","addr:street":"Via Valtellina","amenity":"restaurant","name":"L'Aquarius"},"relations":[],"meta":{},"addr:city":"Milano","addr:country":"IT","addr:housenumber":"4","addr:postcode":"20159","addr:street":"Via Valtellina","amenity":"restaurant","name":"L'Aquarius"},"geometry":{"type":"Point","coordinates":[9.1820443,45.4894833]}},{"type":"Feature","id":"node/3521852757","properties":{"type":"node","id":3521852757,"tags":{"amenity":"cafe","wheelchair":"no"},"relations":[],"meta":{},"amenity":"cafe","wheelchair":"no"},"geometry":{"type":"Point","coordinates":[9.1832085,45.4899521]}},{"type":"Feature","id":"node/3976146191","properties":{"type":"node","id":3976146191,"tags":{"addr:city":"Milano","addr:country":"IT","addr:housenumber":"1","addr:postcode":"20159","addr:street":"Via Alserio","amenity":"restaurant","cuisine":"pizza","name":"L'Angolo della Pizza","opening_hours":"Mo-Su 12:00-15:00,19:00-23:00","wheelchair":"no"},"relations":[],"meta":{},"addr:city":"Milano","addr:country":"IT","addr:housenumber":"1","addr:postcode":"20159","addr:street":"Via Alserio","amenity":"restaurant","cuisine":"pizza","name":"L'Angolo della Pizza","opening_hours":"Mo-Su 12:00-15:00,19:00-23:00","wheelchair":"no"},"geometry":{"type":"Point","coordinates":[9.1842097,45.4915265]}},{"type":"Feature","id":"node/3976146192","properties":{"type":"node","id":3976146192,"tags":{"addr:city":"Milano","addr:country":"IT","addr:housenumber":"40/A","addr:postcode":"20159","addr:street":"Via Carlo Farini","amenity":"restaurant","cuisine":"italian","name":"Margot Bistrot","wheelchair":"no"},"relations":[],"meta":{},"addr:city":"Milano","addr:country":"IT","addr:housenumber":"40/A","addr:postcode":"20159","addr:street":"Via Carlo Farini","amenity":"restaurant","cuisine":"italian","name":"Margot Bistrot","wheelchair":"no"},"geometry":{"type":"Point","coordinates":[9.1836978,45.4903397]}},{"type":"Feature","id":"node/3976146200","properties":{"type":"node","id":3976146200,"tags":{"addr:city":"Milano","addr:country":"IT","addr:housenumber":"3","addr:postcode":"20159","addr:street":"Via Alserio","amenity":"cafe","wheelchair":"no"},"relations":[],"meta":{},"addr:city":"Milano","addr:country":"IT","addr:housenumber":"3","addr:postcode":"20159","addr:street":"Via Alserio","amenity":"cafe","wheelchair":"no"},"geometry":{"type":"Point","coordinates":[9.1849462,45.4913632]}},{"type":"Feature","id":"node/3976146277","properties":{"type":"node","id":3976146277,"tags":{"addr:city":"Milano","addr:country":"IT","addr:housenumber":"48","addr:postcode":"20159","addr:street":"Via Carlo Farini","amenity":"cafe","name":"Bar Castello","opening_hours":"Mo-Fr 06:00-20:00; Sa 06:30-20:00","wheelchair":"yes"},"relations":[],"meta":{},"addr:city":"Milano","addr:country":"IT","addr:housenumber":"48","addr:postcode":"20159","addr:street":"Via Carlo Farini","amenity":"cafe","name":"Bar Castello","opening_hours":"Mo-Fr 06:00-20:00; Sa 06:30-20:00","wheelchair":"yes"},"geometry":{"type":"Point","coordinates":[9.1841357,45.4913093]}},{"type":"Feature","id":"node/3976146291","properties":{"type":"node","id":3976146291,"tags":{"addr:city":"Milano","addr:country":"IT","addr:housenumber":"42","addr:postcode":"20159","addr:street":"Via Carlo Farini","amenity":"cafe","wheelchair":"no"},"relations":[],"meta":{},"addr:city":"Milano","addr:country":"IT","addr:housenumber":"42","addr:postcode":"20159","addr:street":"Via Carlo Farini","amenity":"cafe","wheelchair":"no"},"geometry":{"type":"Point","coordinates":[9.183801,45.4906449]}},{"type":"Feature","id":"node/3976146292","properties":{"type":"node","id":3976146292,"tags":{"addr:city":"Milano","addr:country":"IT","addr:housenumber":"44","addr:postcode":"20159","addr:street":"Via Carlo Farini","amenity":"fast_food","cuisine":"kebab","wheelchair":"no"},"relations":[],"meta":{},"addr:city":"Milano","addr:country":"IT","addr:housenumber":"44","addr:postcode":"20159","addr:street":"Via Carlo Farini","amenity":"fast_food","cuisine":"kebab","wheelchair":"no"},"geometry":{"type":"Point","coordinates":[9.1838651,45.4907984]}},{"type":"Feature","id":"node/3976146296","properties":{"type":"node","id":3976146296,"tags":{"addr:city":"Milano","addr:country":"IT","addr:housenumber":"44","addr:postcode":"20159","addr:street":"Via Carlo Farini","amenity":"restaurant","name":"Trattoria Tiberio","wheelchair":"no"},"relations":[],"meta":{},"addr:city":"Milano","addr:country":"IT","addr:housenumber":"44","addr:postcode":"20159","addr:street":"Via Carlo Farini","amenity":"restaurant","name":"Trattoria Tiberio","wheelchair":"no"},"geometry":{"type":"Point","coordinates":[9.183956,45.4909616]}},{"type":"Feature","id":"node/3976146298","properties":{"type":"node","id":3976146298,"tags":{"addr:city":"Milano","addr:country":"IT","addr:housenumber":"3","addr:postcode":"20159","addr:street":"Via Alserio","amenity":"pub","name":"Zhizun Pub","wheelchair":"no"},"relations":[],"meta":{},"addr:city":"Milano","addr:country":"IT","addr:housenumber":"3","addr:postcode":"20159","addr:street":"Via Alserio","amenity":"pub","name":"Zhizun Pub","wheelchair":"no"},"geometry":{"type":"Point","coordinates":[9.1847285,45.4914095]}},{"type":"Feature","id":"node/3976155261","properties":{"type":"node","id":3976155261,"tags":{"addr:city":"Milano","addr:country":"IT","addr:housenumber":"16","addr:postcode":"20159","addr:street":"Via Medardo Rosso","amenity":"bar","email":"hello@150up.com","name":"150UP","opening_hours":"Mo-Sa 09:00-22:30","phone":"+39 02 89452576","website":"http://150up.com/"},"relations":[],"meta":{},"addr:city":"Milano","addr:country":"IT","addr:housenumber":"16","addr:postcode":"20159","addr:street":"Via Medardo Rosso","amenity":"bar","email":"hello@150up.com","name":"150UP","opening_hours":"Mo-Sa 09:00-22:30","phone":"+39 02 89452576","website":"http://150up.com/"},"geometry":{"type":"Point","coordinates":[9.1847278,45.4902529]}},{"type":"Feature","id":"node/4142385792","properties":{"type":"node","id":4142385792,"tags":{"addr:city":"Milano","addr:country":"IT","addr:housenumber":"55","addr:postcode":"20159","addr:street":"Via Carlo Farini","amenity":"cafe","name":"Bar Azzurra","opening_hours":"Mo-Su 07:30-24:00","wheelchair":"no"},"relations":[],"meta":{},"addr:city":"Milano","addr:country":"IT","addr:housenumber":"55","addr:postcode":"20159","addr:street":"Via Carlo Farini","amenity":"cafe","name":"Bar Azzurra","opening_hours":"Mo-Su 07:30-24:00","wheelchair":"no"},"geometry":{"type":"Point","coordinates":[9.1841894,45.4922563]}},{"type":"Feature","id":"node/4142385793","properties":{"type":"node","id":4142385793,"tags":{"addr:city":"Milano","addr:country":"IT","addr:housenumber":"2","addr:postcode":"20159","addr:street":"Via privata Dina Galli","amenity":"cafe","name":"Caffè Galli","wheelchair":"no"},"relations":[],"meta":{},"addr:city":"Milano","addr:country":"IT","addr:housenumber":"2","addr:postcode":"20159","addr:street":"Via privata Dina Galli","amenity":"cafe","name":"Caffè Galli","wheelchair":"no"},"geometry":{"type":"Point","coordinates":[9.1836932,45.4916024]}},{"type":"Feature","id":"node/4142385795","properties":{"type":"node","id":4142385795,"tags":{"addr:city":"Milano","addr:country":"IT","addr:housenumber":"11","addr:postcode":"20159","addr:street":"Via Lepontina","amenity":"restaurant","name":"Forchetta d'Oro"},"relations":[],"meta":{},"addr:city":"Milano","addr:country":"IT","addr:housenumber":"11","addr:postcode":"20159","addr:street":"Via Lepontina","amenity":"restaurant","name":"Forchetta d'Oro"},"geometry":{"type":"Point","coordinates":[9.1842186,45.493407]}},{"type":"Feature","id":"node/4142386750","properties":{"type":"node","id":4142386750,"tags":{"addr:city":"Milano","addr:country":"IT","addr:housenumber":"52","addr:postcode":"20159","addr:street":"Via Carlo Farini","amenity":"bar","name":"Waiting Bar","wheelchair":"no"},"relations":[],"meta":{},"addr:city":"Milano","addr:country":"IT","addr:housenumber":"52","addr:postcode":"20159","addr:street":"Via Carlo Farini","amenity":"bar","name":"Waiting Bar","wheelchair":"no"},"geometry":{"type":"Point","coordinates":[9.1844035,45.4920241]}},{"type":"Feature","id":"node/4142387315","properties":{"type":"node","id":4142387315,"tags":{"addr:city":"Milano","addr:country":"IT","addr:housenumber":"8","addr:postcode":"20159","addr:street":"Via Lepontina","amenity":"restaurant","diet:gluten_free":"yes","name":"Ristorante Lepontina","opening_hours":"Mo-Su 12:00-15:00,19:00-24:00","phone":"+39 02 39820772","website":"http://ristorante-pizzeria-lepontina.it/"},"relations":[],"meta":{},"addr:city":"Milano","addr:country":"IT","addr:housenumber":"8","addr:postcode":"20159","addr:street":"Via Lepontina","amenity":"restaurant","diet:gluten_free":"yes","name":"Ristorante Lepontina","opening_hours":"Mo-Su 12:00-15:00,19:00-24:00","phone":"+39 02 39820772","website":"http://ristorante-pizzeria-lepontina.it/"},"geometry":{"type":"Point","coordinates":[9.1836955,45.4932866]}},{"type":"Feature","id":"node/4142388217","properties":{"type":"node","id":4142388217,"tags":{"addr:city":"Milano","addr:country":"IT","addr:housenumber":"2","addr:postcode":"20158","addr:street":"Via dell'Aprica","amenity":"restaurant","cuisine":"regional","email":"info@trattoriapiccolofumino.it","name":"Trattoria Piccolo Fumino","opening_hours":"Mo-Fr 11:30-15:00,19:30-24:00; Sa 19:30-00:30","phone":"+39 02 680631","website":"http://www.trattoriapiccolofumino.it/"},"relations":[],"meta":{},"addr:city":"Milano","addr:country":"IT","addr:housenumber":"2","addr:postcode":"20158","addr:street":"Via dell'Aprica","amenity":"restaurant","cuisine":"regional","email":"info@trattoriapiccolofumino.it","name":"Trattoria Piccolo Fumino","opening_hours":"Mo-Fr 11:30-15:00,19:30-24:00; Sa 19:30-00:30","phone":"+39 02 680631","website":"http://www.trattoriapiccolofumino.it/"},"geometry":{"type":"Point","coordinates":[9.1817808,45.4933749]}},{"type":"Feature","id":"node/4142388219","properties":{"type":"node","id":4142388219,"tags":{"amenity":"cafe","name":"Wood"},"relations":[],"meta":{},"amenity":"cafe","name":"Wood"},"geometry":{"type":"Point","coordinates":[9.1827293,45.4934935]}},{"type":"Feature","id":"node/4196128525","properties":{"type":"node","id":4196128525,"tags":{"amenity":"drinking_water"},"relations":[],"meta":{},"amenity":"drinking_water"},"geometry":{"type":"Point","coordinates":[9.1812015,45.490855]}},{"type":"Feature","id":"node/4226277701","properties":{"type":"node","id":4226277701,"tags":{"addr:housenumber":"25","addr:postcode":"20159","addr:street":"Via Luigi Porro Lambertenghi","amenity":"restaurant","cuisine":"japanese","name":"Casa Ramen","wheelchair":"limited"},"relations":[],"meta":{},"addr:housenumber":"25","addr:postcode":"20159","addr:street":"Via Luigi Porro Lambertenghi","amenity":"restaurant","cuisine":"japanese","name":"Casa Ramen","wheelchair":"limited"},"geometry":{"type":"Point","coordinates":[9.1885815,45.4890955]}},{"type":"Feature","id":"node/4237832291","properties":{"type":"node","id":4237832291,"tags":{"amenity":"cafe","cuisine":"coffee_shop","internet_access":"wlan","name":"Deus Café","wheelchair":"yes"},"relations":[],"meta":{},"amenity":"cafe","cuisine":"coffee_shop","internet_access":"wlan","name":"Deus Café","wheelchair":"yes"},"geometry":{"type":"Point","coordinates":[9.1885885,45.4908985]}},{"type":"Feature","id":"node/4270803661","properties":{"type":"node","id":4270803661,"tags":{"amenity":"cafe","name":"Il Posto Giusto"},"relations":[],"meta":{},"amenity":"cafe","name":"Il Posto Giusto"},"geometry":{"type":"Point","coordinates":[9.1900388,45.4952423]}},{"type":"Feature","id":"node/4553487790","properties":{"type":"node","id":4553487790,"tags":{"addr:city":"Milano","addr:housenumber":"20","addr:postcode":"20159","addr:street":"Via Genova Thaon Di Revel","amenity":"restaurant","description":"Burger e dolci in stile americano. Brunch nel weekend, bagels, cupcake, brownie, cheesecake, pie e tante altre prelibatezze tipiche americane.","email":"info@vintagebakery.it","name":"Vintage Bakery","payment:bitcoin":"yes","phone":"+39 0299203619","shop":"pastry","website":"http://www.vintagebakery.it","wheelchair":"no"},"relations":[],"meta":{},"addr:city":"Milano","addr:housenumber":"20","addr:postcode":"20159","addr:street":"Via Genova Thaon Di Revel","amenity":"restaurant","description":"Burger e dolci in stile americano. Brunch nel weekend, bagels, cupcake, brownie, cheesecake, pie e tante altre prelibatezze tipiche americane.","email":"info@vintagebakery.it","name":"Vintage Bakery","payment:bitcoin":"yes","phone":"+39 0299203619","shop":"pastry","website":"http://www.vintagebakery.it","wheelchair":"no"},"geometry":{"type":"Point","coordinates":[9.1881414,45.4933383]}},{"type":"Feature","id":"node/4553487794","properties":{"type":"node","id":4553487794,"tags":{"amenity":"cafe","name":"Bar Emotion","outdoor_seating":"yes","wheelchair":"limited"},"relations":[],"meta":{},"amenity":"cafe","name":"Bar Emotion","outdoor_seating":"yes","wheelchair":"limited"},"geometry":{"type":"Point","coordinates":[9.1882735,45.4931408]}},{"type":"Feature","id":"node/4553487882","properties":{"type":"node","id":4553487882,"tags":{"amenity":"restaurant","name":"Angolomilano","outdoor_seating":"yes","wheelchair":"no"},"relations":[],"meta":{},"amenity":"restaurant","name":"Angolomilano","outdoor_seating":"yes","wheelchair":"no"},"geometry":{"type":"Point","coordinates":[9.1878809,45.4920415]}},{"type":"Feature","id":"node/4584486996","properties":{"type":"node","id":4584486996,"tags":{"amenity":"restaurant","name":"Cucina Sri Lanka"},"relations":[],"meta":{},"amenity":"restaurant","name":"Cucina Sri Lanka"},"geometry":{"type":"Point","coordinates":[9.1874949,45.4942721]}},{"type":"Feature","id":"node/4584486999","properties":{"type":"node","id":4584486999,"tags":{"amenity":"restaurant","cuisine":"italian","name":"Mare in Pasta"},"relations":[],"meta":{},"amenity":"restaurant","cuisine":"italian","name":"Mare in Pasta"},"geometry":{"type":"Point","coordinates":[9.1870429,45.4949227]}},{"type":"Feature","id":"node/4584487006","properties":{"type":"node","id":4584487006,"tags":{"amenity":"cafe","name":"Bar Monica"},"relations":[],"meta":{},"amenity":"cafe","name":"Bar Monica"},"geometry":{"type":"Point","coordinates":[9.1869008,45.4951389]}},{"type":"Feature","id":"node/4584487040","properties":{"type":"node","id":4584487040,"tags":{"amenity":"cafe","name":"Roby Bar"},"relations":[],"meta":{},"amenity":"cafe","name":"Roby Bar"},"geometry":{"type":"Point","coordinates":[9.1878744,45.4940611]}},{"type":"Feature","id":"node/4585296923","properties":{"type":"node","id":4585296923,"tags":{"amenity":"cafe","name":"Caffè Bar Farini","wheelchair":"no"},"relations":[],"meta":{},"amenity":"cafe","name":"Caffè Bar Farini","wheelchair":"no"},"geometry":{"type":"Point","coordinates":[9.184971,45.4941146]}},{"type":"Feature","id":"node/4585296925","properties":{"type":"node","id":4585296925,"tags":{"amenity":"cafe","name":"7's Gio","wheelchair":"no"},"relations":[],"meta":{},"amenity":"cafe","name":"7's Gio","wheelchair":"no"},"geometry":{"type":"Point","coordinates":[9.1850377,45.4942763]}},{"type":"Feature","id":"node/4585321456","properties":{"type":"node","id":4585321456,"tags":{"amenity":"cafe","name":"Bar Big Bang"},"relations":[],"meta":{},"amenity":"cafe","name":"Bar Big Bang"},"geometry":{"type":"Point","coordinates":[9.1864528,45.4944322]}},{"type":"Feature","id":"node/4840655040","properties":{"type":"node","id":4840655040,"tags":{"addr:city":"Milano","addr:postcode":"20159","addr:street":"Piazzale Segrino","amenity":"restaurant","cuisine":"pizza","name":"Assaje","wheelchair":"yes"},"relations":[],"meta":{},"addr:city":"Milano","addr:postcode":"20159","addr:street":"Piazzale Segrino","amenity":"restaurant","cuisine":"pizza","name":"Assaje","wheelchair":"yes"},"geometry":{"type":"Point","coordinates":[9.1895328,45.4899138]}},{"type":"Feature","id":"node/4840655042","properties":{"type":"node","id":4840655042,"tags":{"addr:city":"Milano","addr:postcode":"20159","addr:street":"Via Luigi Porro Lambertenghi","amenity":"fast_food","cuisine":"greek","name":"Opa Opa","wheelchair":"limited"},"relations":[],"meta":{},"addr:city":"Milano","addr:postcode":"20159","addr:street":"Via Luigi Porro Lambertenghi","amenity":"fast_food","cuisine":"greek","name":"Opa Opa","wheelchair":"limited"},"geometry":{"type":"Point","coordinates":[9.187255,45.4891965]}},{"type":"Feature","id":"node/4840655043","properties":{"type":"node","id":4840655043,"tags":{"addr:city":"Milano","addr:postcode":"20159","addr:street":"Via Antonio Pollaiuolo","amenity":"fast_food","cuisine":"indian","name":"indian snacks","wheelchair":"limited"},"relations":[],"meta":{},"addr:city":"Milano","addr:postcode":"20159","addr:street":"Via Antonio Pollaiuolo","amenity":"fast_food","cuisine":"indian","name":"indian snacks","wheelchair":"limited"},"geometry":{"type":"Point","coordinates":[9.1875528,45.4886851]}},{"type":"Feature","id":"node/4936654621","properties":{"type":"node","id":4936654621,"tags":{"addr:housenumber":"34","addr:street":"Via Pietro Borsieri","amenity":"cafe","name":"type","wheelchair":"yes"},"relations":[],"meta":{},"addr:housenumber":"34","addr:street":"Via Pietro Borsieri","amenity":"cafe","name":"type","wheelchair":"yes"},"geometry":{"type":"Point","coordinates":[9.1892852,45.4896812]}},{"type":"Feature","id":"node/4953162367","properties":{"type":"node","id":4953162367,"tags":{"Fonte":"Metropolitana Milanese - MM","Licenza":"CC-BY","amenity":"drinking_water","operator":"Metropolitana Milanese - MM SpA","source:url":"https://geoportale.comune.milano.it/ATOM/SIT/Fontanelle/Fontanelle_Dataset_1.xml","website":"http://www.metropolitanamilanese.it/"},"relations":[],"meta":{},"Fonte":"Metropolitana Milanese - MM","Licenza":"CC-BY","amenity":"drinking_water","operator":"Metropolitana Milanese - MM SpA","source:url":"https://geoportale.comune.milano.it/ATOM/SIT/Fontanelle/Fontanelle_Dataset_1.xml","website":"http://www.metropolitanamilanese.it/"},"geometry":{"type":"Point","coordinates":[9.1854133,45.4927625]}},{"type":"Feature","id":"node/4953162369","properties":{"type":"node","id":4953162369,"tags":{"Fonte":"Metropolitana Milanese - MM","Licenza":"CC-BY","amenity":"drinking_water","operator":"Metropolitana Milanese - MM SpA","source:url":"https://geoportale.comune.milano.it/ATOM/SIT/Fontanelle/Fontanelle_Dataset_1.xml","website":"http://www.metropolitanamilanese.it/"},"relations":[],"meta":{},"Fonte":"Metropolitana Milanese - MM","Licenza":"CC-BY","amenity":"drinking_water","operator":"Metropolitana Milanese - MM SpA","source:url":"https://geoportale.comune.milano.it/ATOM/SIT/Fontanelle/Fontanelle_Dataset_1.xml","website":"http://www.metropolitanamilanese.it/"},"geometry":{"type":"Point","coordinates":[9.1909174,45.4892367]}},{"type":"Feature","id":"node/4953163062","properties":{"type":"node","id":4953163062,"tags":{"Fonte":"Metropolitana Milanese - MM","Licenza":"CC-BY","amenity":"drinking_water","operator":"Metropolitana Milanese - MM SpA","source:url":"https://geoportale.comune.milano.it/ATOM/SIT/Fontanelle/Fontanelle_Dataset_1.xml","website":"http://www.metropolitanamilanese.it/"},"relations":[],"meta":{},"Fonte":"Metropolitana Milanese - MM","Licenza":"CC-BY","amenity":"drinking_water","operator":"Metropolitana Milanese - MM SpA","source:url":"https://geoportale.comune.milano.it/ATOM/SIT/Fontanelle/Fontanelle_Dataset_1.xml","website":"http://www.metropolitanamilanese.it/"},"geometry":{"type":"Point","coordinates":[9.181428,45.4904561]}},{"type":"Feature","id":"node/4953163471","properties":{"type":"node","id":4953163471,"tags":{"Fonte":"Metropolitana Milanese - MM","Licenza":"CC-BY","amenity":"drinking_water","operator":"Metropolitana Milanese - MM SpA","source:url":"https://geoportale.comune.milano.it/ATOM/SIT/Fontanelle/Fontanelle_Dataset_1.xml","website":"http://www.metropolitanamilanese.it/"},"relations":[],"meta":{},"Fonte":"Metropolitana Milanese - MM","Licenza":"CC-BY","amenity":"drinking_water","operator":"Metropolitana Milanese - MM SpA","source:url":"https://geoportale.comune.milano.it/ATOM/SIT/Fontanelle/Fontanelle_Dataset_1.xml","website":"http://www.metropolitanamilanese.it/"},"geometry":{"type":"Point","coordinates":[9.1870961,45.4920557]}},{"type":"Feature","id":"node/5074923145","properties":{"type":"node","id":5074923145,"tags":{"addr:city":"Milano","addr:housenumber":"61","addr:street":"Viale Zara","amenity":"restaurant","name":"Ristorante Ivana"},"relations":[],"meta":{},"addr:city":"Milano","addr:housenumber":"61","addr:street":"Viale Zara","amenity":"restaurant","name":"Ristorante Ivana"},"geometry":{"type":"Point","coordinates":[9.1933465,45.4943019]}},{"type":"Feature","id":"node/5074923178","properties":{"type":"node","id":5074923178,"tags":{"amenity":"cafe","name":"Bar Marilù"},"relations":[],"meta":{},"amenity":"cafe","name":"Bar Marilù"},"geometry":{"type":"Point","coordinates":[9.1910318,45.4932264]}},{"type":"Feature","id":"node/5074923180","properties":{"type":"node","id":5074923180,"tags":{"amenity":"fast_food","cuisine":"sri_lankan","name":"Ceylon Choice","takeaway":"yes"},"relations":[],"meta":{},"amenity":"fast_food","cuisine":"sri_lankan","name":"Ceylon Choice","takeaway":"yes"},"geometry":{"type":"Point","coordinates":[9.1912973,45.4931578]}},{"type":"Feature","id":"node/5074925145","properties":{"type":"node","id":5074925145,"tags":{"amenity":"cafe","name":"Bar...lafüs"},"relations":[],"meta":{},"amenity":"cafe","name":"Bar...lafüs"},"geometry":{"type":"Point","coordinates":[9.1900367,45.4923672]}},{"type":"Feature","id":"node/5074943074","properties":{"type":"node","id":5074943074,"tags":{"amenity":"cafe","name":"Tiffany"},"relations":[],"meta":{},"amenity":"cafe","name":"Tiffany"},"geometry":{"type":"Point","coordinates":[9.1916513,45.4947738]}},{"type":"Feature","id":"node/5437838121","properties":{"type":"node","id":5437838121,"tags":{"addr:city":"Milano","addr:housenumber":"26","addr:postcode":"20159","addr:street":"Via Ugo Bassi","amenity":"restaurant","capacity":"30","cuisine":"japanese","name":"Casa Ramen Super","opening_hours":"Tu-Sa 12:30-15:00, 19:30-23:00","outdoor_seating":"no","smoking":"no","takeaway":"no","wheelchair":"no"},"relations":[],"meta":{},"addr:city":"Milano","addr:housenumber":"26","addr:postcode":"20159","addr:street":"Via Ugo Bassi","amenity":"restaurant","capacity":"30","cuisine":"japanese","name":"Casa Ramen Super","opening_hours":"Tu-Sa 12:30-15:00, 19:30-23:00","outdoor_seating":"no","smoking":"no","takeaway":"no","wheelchair":"no"},"geometry":{"type":"Point","coordinates":[9.1872177,45.4896231]}},{"type":"Feature","id":"node/6067159814","properties":{"type":"node","id":6067159814,"tags":{"addr:city":"Milano","addr:country":"IT","addr:housenumber":"8","addr:postcode":"20159","addr:street":"Via Ugo Bassi","amenity":"restaurant","cuisine":"pizza","name":"Amici della Pizza"},"relations":[],"meta":{},"addr:city":"Milano","addr:country":"IT","addr:housenumber":"8","addr:postcode":"20159","addr:street":"Via Ugo Bassi","amenity":"restaurant","cuisine":"pizza","name":"Amici della Pizza"},"geometry":{"type":"Point","coordinates":[9.1847738,45.4889224]}},{"type":"Feature","id":"node/6380520757","properties":{"type":"node","id":6380520757,"tags":{"addr:city":"Milano","addr:housenumber":"30","addr:postcode":"20159","addr:street":"Via Pietro Borsieri","amenity":"bar","brewery":"various","contact:phone":"+39 338 19613 14","contact:website":"https://beershowmilano.wixsite.com","name":"Beershow","opening_hours":"18:00-02:00","source":"https://beershowmilano.wixsite.com/beershow/contatti","wheelchair":"limited"},"relations":[],"meta":{},"addr:city":"Milano","addr:housenumber":"30","addr:postcode":"20159","addr:street":"Via Pietro Borsieri","amenity":"bar","brewery":"various","contact:phone":"+39 338 19613 14","contact:website":"https://beershowmilano.wixsite.com","name":"Beershow","opening_hours":"18:00-02:00","source":"https://beershowmilano.wixsite.com/beershow/contatti","wheelchair":"limited"},"geometry":{"type":"Point","coordinates":[9.1892051,45.4890813]}},{"type":"Feature","id":"node/6539942448","properties":{"type":"node","id":6539942448,"tags":{"addr:street":"Via Luigi Porro Lambertenghi","amenity":"cafe","name":"Lucky bar","outdoor_seating":"yes"},"relations":[],"meta":{},"addr:street":"Via Luigi Porro Lambertenghi","amenity":"cafe","name":"Lucky bar","outdoor_seating":"yes"},"geometry":{"type":"Point","coordinates":[9.1873667,45.4890164]}},{"type":"Feature","id":"node/6539942449","properties":{"type":"node","id":6539942449,"tags":{"addr:street":"Via Luigi Porro Lambertenghi","amenity":"fast_food","cuisine":"burger","name":"Alley"},"relations":[],"meta":{},"addr:street":"Via Luigi Porro Lambertenghi","amenity":"fast_food","cuisine":"burger","name":"Alley"},"geometry":{"type":"Point","coordinates":[9.187128,45.4892026]}},{"type":"Feature","id":"node/6539942450","properties":{"type":"node","id":6539942450,"tags":{"addr:street":"Via Antonio Pollaiuolo","amenity":"pub","brewery":"yes","microbrewery":"no","name":"3/4"},"relations":[],"meta":{},"addr:street":"Via Antonio Pollaiuolo","amenity":"pub","brewery":"yes","microbrewery":"no","name":"3/4"},"geometry":{"type":"Point","coordinates":[9.1873664,45.4889694]}},{"type":"Feature","id":"node/6539942451","properties":{"type":"node","id":6539942451,"tags":{"addr:street":"Via Antonio Pollaiuolo","amenity":"bar","name":"Fiordiponti","outdoor_seating":"yes"},"relations":[],"meta":{},"addr:street":"Via Antonio Pollaiuolo","amenity":"bar","name":"Fiordiponti","outdoor_seating":"yes"},"geometry":{"type":"Point","coordinates":[9.1875494,45.4896107]}},{"type":"Feature","id":"node/6539942452","properties":{"type":"node","id":6539942452,"tags":{"addr:street":"Via Ugo Bassi","amenity":"bar","name":"Millemisture"},"relations":[],"meta":{},"addr:street":"Via Ugo Bassi","amenity":"bar","name":"Millemisture"},"geometry":{"type":"Point","coordinates":[9.187462,45.4896905]}},{"type":"Feature","id":"node/6539942453","properties":{"type":"node","id":6539942453,"tags":{"amenity":"pub","brewery":"yes","microbrewery":"yes","name":"BeerShow"},"relations":[],"meta":{},"amenity":"pub","brewery":"yes","microbrewery":"yes","name":"BeerShow"},"geometry":{"type":"Point","coordinates":[9.1892051,45.4891069]}},{"type":"Feature","id":"node/6539942454","properties":{"type":"node","id":6539942454,"tags":{"amenity":"bar","brewery":"bubble_tea","name":"taiwan bubble tea"},"relations":[],"meta":{},"amenity":"bar","brewery":"bubble_tea","name":"taiwan bubble tea"},"geometry":{"type":"Point","coordinates":[9.1888848,45.4897386]}},{"type":"Feature","id":"node/6539942456","properties":{"type":"node","id":6539942456,"tags":{"addr:street":"Via Pietro Borsieri","amenity":"restaurant","cuisine":"chinese","name":"Ola"},"relations":[],"meta":{},"addr:street":"Via Pietro Borsieri","amenity":"restaurant","cuisine":"chinese","name":"Ola"},"geometry":{"type":"Point","coordinates":[9.1888848,45.4897838]}},{"type":"Feature","id":"node/6539942460","properties":{"type":"node","id":6539942460,"tags":{"addr:street":"Via Ugo Bassi","amenity":"restaurant","cuisine":"pizza","name":"Caprese"},"relations":[],"meta":{},"addr:street":"Via Ugo Bassi","amenity":"restaurant","cuisine":"pizza","name":"Caprese"},"geometry":{"type":"Point","coordinates":[9.1878614,45.4897949]}},{"type":"Feature","id":"node/6541823182","properties":{"type":"node","id":6541823182,"tags":{"amenity":"restaurant","cuisine":"sushi","name":"Brigitte Sushi"},"relations":[],"meta":{},"amenity":"restaurant","cuisine":"sushi","name":"Brigitte Sushi"},"geometry":{"type":"Point","coordinates":[9.1887831,45.4887737]}},{"type":"Feature","id":"node/6652798487","properties":{"type":"node","id":6652798487,"tags":{"addr:housenumber":"3","addr:postcode":"20159","addr:street":"Via Genova Thaon Di Revel","amenity":"fast_food","name":"KD HOUSE","wheelchair":"no"},"relations":[],"meta":{},"addr:housenumber":"3","addr:postcode":"20159","addr:street":"Via Genova Thaon Di Revel","amenity":"fast_food","name":"KD HOUSE","wheelchair":"no"},"geometry":{"type":"Point","coordinates":[9.18891,45.4908677]}},{"type":"Feature","id":"node/7498499193","properties":{"type":"node","id":7498499193,"tags":{"addr:city":"Milano","addr:housenumber":"8","addr:postcode":"20159","addr:street":"Via Garigliano","air_conditioning":"yes","amenity":"restaurant","cuisine":"seafood;regional;sandwiches;salads;pasta","name":"Panini Di Mare Fishlab","outdoor_seating":"yes","takeaway":"yes","website":"www.paninidimare.it","wheelchair":"yes"},"relations":[],"meta":{},"addr:city":"Milano","addr:housenumber":"8","addr:postcode":"20159","addr:street":"Via Garigliano","air_conditioning":"yes","amenity":"restaurant","cuisine":"seafood;regional;sandwiches;salads;pasta","name":"Panini Di Mare Fishlab","outdoor_seating":"yes","takeaway":"yes","website":"www.paninidimare.it","wheelchair":"yes"},"geometry":{"type":"Point","coordinates":[9.1898747,45.4882266]}},{"type":"Feature","id":"node/8067018361","properties":{"type":"node","id":8067018361,"tags":{"addr:city":"Milano","addr:postcode":"20139","addr:street":"Viale Stelvio","amenity":"fast_food","cuisine":"italian","name":"La piadineria"},"relations":[],"meta":{},"addr:city":"Milano","addr:postcode":"20139","addr:street":"Viale Stelvio","amenity":"fast_food","cuisine":"italian","name":"La piadineria"},"geometry":{"type":"Point","coordinates":[9.1856532,45.4946335]}},{"type":"Feature","id":"node/8284128792","properties":{"type":"node","id":8284128792,"tags":{"addr:city":"Milano","addr:country":"IT","addr:housenumber":"41","addr:postcode":"20124","addr:street":"Via Volturno","amenity":"cafe","name":"Caffè Volturno","wheelchair":"limited"},"relations":[],"meta":{},"addr:city":"Milano","addr:country":"IT","addr:housenumber":"41","addr:postcode":"20124","addr:street":"Via Volturno","amenity":"cafe","name":"Caffè Volturno","wheelchair":"limited"},"geometry":{"type":"Point","coordinates":[9.1909828,45.4881629]}},{"type":"Feature","id":"node/8284128794","properties":{"type":"node","id":8284128794,"tags":{"amenity":"cafe","name":"Baraonda Cafè","wheelchair":"limited"},"relations":[],"meta":{},"amenity":"cafe","name":"Baraonda Cafè","wheelchair":"limited"},"geometry":{"type":"Point","coordinates":[9.1904847,45.4888049]}},{"type":"Feature","id":"node/8284128796","properties":{"type":"node","id":8284128796,"tags":{"addr:city":"Milano","addr:country":"IT","addr:housenumber":"12","addr:postcode":"20159","addr:street":"Via Garigliano","amenity":"restaurant","email":"info@sullenuvolemilano.com","name":"Sulle Nuvole","opening_hours":"Mo 07:30-15:00; Tu,Sa 06:30-15:00,18:15-23:00; We-Fr 07:30-15:00,18:15-23:00","phone":"+39 02 69006955","website":"https://www.sullenuvolemilano.com/","wheelchair":"no"},"relations":[],"meta":{},"addr:city":"Milano","addr:country":"IT","addr:housenumber":"12","addr:postcode":"20159","addr:street":"Via Garigliano","amenity":"restaurant","email":"info@sullenuvolemilano.com","name":"Sulle Nuvole","opening_hours":"Mo 07:30-15:00; Tu,Sa 06:30-15:00,18:15-23:00; We-Fr 07:30-15:00,18:15-23:00","phone":"+39 02 69006955","website":"https://www.sullenuvolemilano.com/","wheelchair":"no"},"geometry":{"type":"Point","coordinates":[9.1902301,45.488567]}},{"type":"Feature","id":"node/8284128798","properties":{"type":"node","id":8284128798,"tags":{"addr:city":"Milano","addr:country":"IT","addr:housenumber":"12","addr:postcode":"20159","addr:street":"Via Garigliano","amenity":"fast_food","cuisine":"pizza","name":"Isola della Pizza","opening_hours":"Mo-Su 11:50-23:00","takeaway":"only","website":"http://www.isoladellapizza-milano.it/","wheelchair":"no"},"relations":[],"meta":{},"addr:city":"Milano","addr:country":"IT","addr:housenumber":"12","addr:postcode":"20159","addr:street":"Via Garigliano","amenity":"fast_food","cuisine":"pizza","name":"Isola della Pizza","opening_hours":"Mo-Su 11:50-23:00","takeaway":"only","website":"http://www.isoladellapizza-milano.it/","wheelchair":"no"},"geometry":{"type":"Point","coordinates":[9.1901127,45.4884541]}},{"type":"Feature","id":"node/8948634516","properties":{"type":"node","id":8948634516,"tags":{"amenity":"restaurant","name":"Rossopomodoro"},"relations":[],"meta":{},"amenity":"restaurant","name":"Rossopomodoro"},"geometry":{"type":"Point","coordinates":[9.187455,45.4892008]}}]}