{"type":"FeatureCollection","features":[{"type":"Feature","id":"node/456849742","properties":{"type":"node","id":456849742,"tags":{"addr:city":"Milano","addr:street":"Piazzale Lagosta","amenity":"taxi","name":"Posteggio Taxi Piazzale Lagosta","phone":"+39 02 603984","source":"personal survey on site (including phone number)"},"relations":[],"meta":{},"addr:city":"Milano","addr:street":"Piazzale Lagosta","amenity":"taxi","name":"Posteggio Taxi Piazzale Lagosta","phone":"+39 02 603984","source":"personal survey on site (including phone number)"},"geometry":{"type":"Point","coordinates":[9.191109,45.4890027]}},{"type":"Feature","id":"node/959824652","properties":{"type":"node","id":959824652,"tags":{"bus":"yes","highway":"bus_stop","name":"Viale Stelvio - Via Lario","public_transport":"platform","ref":"11641","shelter":"yes"},"relations":[],"meta":{},"bus":"yes","highway":"bus_stop","name":"Viale Stelvio - Via Lario","public_transport":"platform","ref":"11641","shelter":"yes"},"geometry":{"type":"Point","coordinates":[9.1910181,45.4931059]}},{"type":"Feature","id":"node/1279742024","properties":{"type":"node","id":1279742024,"tags":{"bus":"yes","highway":"bus_stop","name":"Via Farini - Viale Stelvio","public_transport":"platform","ref":"11620","shelter":"yes"},"relations":[],"meta":{},"bus":"yes","highway":"bus_stop","name":"Via Farini - Viale Stelvio","public_transport":"platform","ref":"11620","shelter":"yes"},"geometry":{"type":"Point","coordinates":[9.1857766,45.4943975]}},{"type":"Feature","id":"node/1279742039","properties":{"type":"node","id":1279742039,"tags":{"bus":"yes","highway":"bus_stop","name":"Via Farini - Viale Stelvio","public_transport":"platform","ref":"11622","shelter":"yes"},"relations":[],"meta":{},"bus":"yes","highway":"bus_stop","name":"Via Farini - Viale Stelvio","public_transport":"platform","ref":"11622","shelter":"yes"},"geometry":{"type":"Point","coordinates":[9.185647,45.494527]}},{"type":"Feature","id":"node/1279742054","properties":{"type":"node","id":1279742054,"tags":{"bench":"yes","bin":"no","bus":"yes","check_date:shelter":"2020-11-01","highway":"bus_stop","name":"Zara M3 M5","old_name":"Viale Sauro - Viale Zara","public_transport":"platform","ref":"11895","shelter":"yes","tactile_paving":"no"},"relations":[],"meta":{},"bench":"yes","bin":"no","bus":"yes","check_date:shelter":"2020-11-01","highway":"bus_stop","name":"Zara M3 M5","old_name":"Viale Sauro - Viale Zara","public_transport":"platform","ref":"11895","shelter":"yes","tactile_paving":"no"},"geometry":{"type":"Point","coordinates":[9.1934208,45.492468]}},{"type":"Feature","id":"node/1279742061","properties":{"type":"node","id":1279742061,"tags":{"bench":"no","bus":"yes","comment:it":"fermata autobus extra urbani z150 Milano - Cantu e z130 Milano - Senago - Limbiate di Airpulman","highway":"bus_stop","mapillary":"JMFaxXgqup0mkAkoGXURyQ","name":"Miano Viale Zara 52 - MM3 (dep. ATM)","pole":"yes","public_transport":"platform","shelter":"no","survey:date":"2018-04-30","tactile_paving":"no"},"relations":[],"meta":{},"bench":"no","bus":"yes","comment:it":"fermata autobus extra urbani z150 Milano - Cantu e z130 Milano - Senago - Limbiate di Airpulman","highway":"bus_stop","mapillary":"JMFaxXgqup0mkAkoGXURyQ","name":"Miano Viale Zara 52 - MM3 (dep. ATM)","pole":"yes","public_transport":"platform","shelter":"no","survey:date":"2018-04-30","tactile_paving":"no"},"geometry":{"type":"Point","coordinates":[9.1932098,45.4939014]}},{"type":"Feature","id":"node/1279742065","properties":{"type":"node","id":1279742065,"tags":{"bench":"no","bus":"yes","highway":"bus_stop","name":"Via Farini - Viale Stelvio","public_transport":"platform","ref":"15531","shelter":"no"},"relations":[],"meta":{},"bench":"no","bus":"yes","highway":"bus_stop","name":"Via Farini - Viale Stelvio","public_transport":"platform","ref":"15531","shelter":"no"},"geometry":{"type":"Point","coordinates":[9.1858454,45.4945552]}},{"type":"Feature","id":"node/1279742073","properties":{"type":"node","id":1279742073,"tags":{"bench":"yes","bin":"yes","bus":"yes","check_date:shelter":"2020-11-01","highway":"bus_stop","name":"Zara M3 M5","old_name":"Viale Sauro - Viale Zara","public_transport":"platform","ref":"11896","shelter":"yes","tactile_paving":"no"},"relations":[],"meta":{},"bench":"yes","bin":"yes","bus":"yes","check_date:shelter":"2020-11-01","highway":"bus_stop","name":"Zara M3 M5","old_name":"Viale Sauro - Viale Zara","public_transport":"platform","ref":"11896","shelter":"yes","tactile_paving":"no"},"geometry":{"type":"Point","coordinates":[9.1933501,45.4924]}},{"type":"Feature","id":"node/1295523740","properties":{"type":"node","id":1295523740,"tags":{"bus":"yes","highway":"bus_stop","name":"Piazzale Lagosta","old_name":"Via Traù - Piazzale Segrino","public_transport":"platform","ref":"11633-A","shelter":"yes"},"relations":[],"meta":{},"bus":"yes","highway":"bus_stop","name":"Piazzale Lagosta","old_name":"Via Traù - Piazzale Segrino","public_transport":"platform","ref":"11633-A","shelter":"yes"},"geometry":{"type":"Point","coordinates":[9.1898397,45.4901176]}},{"type":"Feature","id":"node/1295531541","properties":{"type":"node","id":1295531541,"tags":{"bus":"yes","highway":"bus_stop","name":"Piazzale Segrino","public_transport":"platform"},"relations":[],"meta":{},"bus":"yes","highway":"bus_stop","name":"Piazzale Segrino","public_transport":"platform"},"geometry":{"type":"Point","coordinates":[9.1894348,45.4908983]}},{"type":"Feature","id":"node/1474050948","properties":{"type":"node","id":1474050948,"tags":{"bench":"yes","highway":"bus_stop","name":"Via Farini - Viale Stelvio","public_transport":"stop_position","railway":"tram_stop","ref":"11618","shelter":"yes","tram":"yes","wheelchair":"yes"},"relations":[],"meta":{},"bench":"yes","highway":"bus_stop","name":"Via Farini - Viale Stelvio","public_transport":"stop_position","railway":"tram_stop","ref":"11618","shelter":"yes","tram":"yes","wheelchair":"yes"},"geometry":{"type":"Point","coordinates":[9.1854649,45.4949077]}},{"type":"Feature","id":"node/1514331921","properties":{"type":"node","id":1514331921,"tags":{"amenity":"parking_entrance","layer":"-1","name":"Parcheggio Sotterraneo"},"relations":[],"meta":{},"amenity":"parking_entrance","layer":"-1","name":"Parcheggio Sotterraneo"},"geometry":{"type":"Point","coordinates":[9.185149,45.4947988]}},{"type":"Feature","id":"node/1547092080","properties":{"type":"node","id":1547092080,"tags":{"bench":"yes","bus":"yes","highway":"bus_stop","name":"Via Lario - Via Nava","public_transport":"platform","ref":"11637","route_ref":"86:166","shelter":"yes","tactile_paving":"yes"},"relations":[],"meta":{},"bench":"yes","bus":"yes","highway":"bus_stop","name":"Via Lario - Via Nava","public_transport":"platform","ref":"11637","route_ref":"86:166","shelter":"yes","tactile_paving":"yes"},"geometry":{"type":"Point","coordinates":[9.1910903,45.4942143]}},{"type":"Feature","id":"node/1547093044","properties":{"type":"node","id":1547093044,"tags":{"bench":"no","bus":"yes","highway":"bus_stop","name":"Viale Stelvio - Via Lario","public_transport":"platform","shelter":"no"},"relations":[],"meta":{},"bench":"no","bus":"yes","highway":"bus_stop","name":"Viale Stelvio - Via Lario","public_transport":"platform","shelter":"no"},"geometry":{"type":"Point","coordinates":[9.1910532,45.4929275]}},{"type":"Feature","id":"node/1547094139","properties":{"type":"node","id":1547094139,"tags":{"bus":"yes","highway":"bus_stop","mapillary":"unwxm3-tXTtp4l75vTGBSg","name":"Zara M3 M5","pole":"yes","public_transport":"platform","shelter":"no","survey:date":"2019-11-08"},"relations":[],"meta":{},"bus":"yes","highway":"bus_stop","mapillary":"unwxm3-tXTtp4l75vTGBSg","name":"Zara M3 M5","pole":"yes","public_transport":"platform","shelter":"no","survey:date":"2019-11-08"},"geometry":{"type":"Point","coordinates":[9.1923542,45.4919233]}},{"type":"Feature","id":"node/1547095073","properties":{"type":"node","id":1547095073,"tags":{"bench":"no","bin":"yes","bus":"yes","highway":"bus_stop","name":"Zara M3","public_transport":"platform","shelter":"no","tactile_paving":"yes"},"relations":[],"meta":{},"bench":"no","bin":"yes","bus":"yes","highway":"bus_stop","name":"Zara M3","public_transport":"platform","shelter":"no","tactile_paving":"yes"},"geometry":{"type":"Point","coordinates":[9.192984,45.4921386]}},{"type":"Feature","id":"node/1547097088","properties":{"type":"node","id":1547097088,"tags":{"bus":"yes","highway":"bus_stop","name":"Viale Stelvio - Via Lario","public_transport":"platform","shelter":"no"},"relations":[],"meta":{},"bus":"yes","highway":"bus_stop","name":"Viale Stelvio - Via Lario","public_transport":"platform","shelter":"no"},"geometry":{"type":"Point","coordinates":[9.1910367,45.4931652]}},{"type":"Feature","id":"node/1547098418","properties":{"type":"node","id":1547098418,"tags":{"bus":"yes","highway":"bus_stop","name":"Via Lario - Via Nava","public_transport":"platform","ref":"13097","shelter":"no","tactile_paving":"yes"},"relations":[],"meta":{},"bus":"yes","highway":"bus_stop","name":"Via Lario - Via Nava","public_transport":"platform","ref":"13097","shelter":"no","tactile_paving":"yes"},"geometry":{"type":"Point","coordinates":[9.1913317,45.4943836]}},{"type":"Feature","id":"node/1737802640","properties":{"type":"node","id":1737802640,"tags":{"name":"Zara","operator":"ATM","platforms":"2","public_transport":"station","railway":"station","station":"subway","subway":"yes","wikidata":"Q1088305","wikipedia":"it:Zara (metropolitana di Milano)"},"relations":[],"meta":{},"name":"Zara","operator":"ATM","platforms":"2","public_transport":"station","railway":"station","station":"subway","subway":"yes","wikidata":"Q1088305","wikipedia":"it:Zara (metropolitana di Milano)"},"geometry":{"type":"Point","coordinates":[9.192414,45.4927242]}},{"type":"Feature","id":"node/1860891777","properties":{"type":"node","id":1860891777,"tags":{"bench":"yes","bus":"yes","highway":"bus_stop","name":"Piazzale Lagosta","public_transport":"platform","shelter":"yes"},"relations":[],"meta":{},"bench":"yes","bus":"yes","highway":"bus_stop","name":"Piazzale Lagosta","public_transport":"platform","shelter":"yes"},"geometry":{"type":"Point","coordinates":[9.1905651,45.4896264]}},{"type":"Feature","id":"node/1937224299","properties":{"type":"node","id":1937224299,"tags":{"bench":"yes","bin":"yes","bus":"yes","check_date:shelter":"2022-03-20","fixme":"ref missing","highway":"bus_stop","name":"Via Pola - Piazzale Lagosta","passenger_information_display":"no","public_transport":"platform","shelter":"yes"},"relations":[],"meta":{},"bench":"yes","bin":"yes","bus":"yes","check_date:shelter":"2022-03-20","fixme":"ref missing","highway":"bus_stop","name":"Via Pola - Piazzale Lagosta","passenger_information_display":"no","public_transport":"platform","shelter":"yes"},"geometry":{"type":"Point","coordinates":[9.1922963,45.4892645]}},{"type":"Feature","id":"node/1943345534","properties":{"type":"node","id":1943345534,"tags":{"amenity":"bicycle_parking","bicycle_parking":"Verona_rack","capacity":"5","covered":"no"},"relations":[],"meta":{},"amenity":"bicycle_parking","bicycle_parking":"Verona_rack","capacity":"5","covered":"no"},"geometry":{"type":"Point","coordinates":[9.1911055,45.4881238]}},{"type":"Feature","id":"node/1943345552","properties":{"type":"node","id":1943345552,"tags":{"amenity":"bicycle_parking","bicycle_parking":"Verona_rack","capacity":"5"},"relations":[],"meta":{},"amenity":"bicycle_parking","bicycle_parking":"Verona_rack","capacity":"5"},"geometry":{"type":"Point","coordinates":[9.1909776,45.4886665]}},{"type":"Feature","id":"node/1992077978","properties":{"type":"node","id":1992077978,"tags":{"amenity":"bicycle_rental","brand":"BikeMi","brand:wikidata":"Q2902552","brand:wikipedia":"en:BikeMi","capacity":"35","fee":"yes","name":"Lagosta","network":"BikeMi","operator":"Clear Channel","payment:credit_cards":"no","ref":"196","source":"https://www.bikemi.com/it/mappa-stazioni.aspx","website":"https://www.bikemi.com","wheelchair":"yes"},"relations":[],"meta":{},"amenity":"bicycle_rental","brand":"BikeMi","brand:wikidata":"Q2902552","brand:wikipedia":"en:BikeMi","capacity":"35","fee":"yes","name":"Lagosta","network":"BikeMi","operator":"Clear Channel","payment:credit_cards":"no","ref":"196","source":"https://www.bikemi.com/it/mappa-stazioni.aspx","website":"https://www.bikemi.com","wheelchair":"yes"},"geometry":{"type":"Point","coordinates":[9.1908414,45.4890834]}},{"type":"Feature","id":"node/2141583488","properties":{"type":"node","id":2141583488,"tags":{"amenity":"motorcycle_parking","bicycle_parking":"stands","capacity":"5","comment":"Manca segnaletica verticale"},"relations":[],"meta":{},"amenity":"motorcycle_parking","bicycle_parking":"stands","capacity":"5","comment":"Manca segnaletica verticale"},"geometry":{"type":"Point","coordinates":[9.1880096,45.4906577]}},{"type":"Feature","id":"node/2252712885","properties":{"type":"node","id":2252712885,"tags":{"amenity":"bicycle_parking","bicycle_parking":"stands","capacity":"20","motorcycle":"yes"},"relations":[],"meta":{},"amenity":"bicycle_parking","bicycle_parking":"stands","capacity":"20","motorcycle":"yes"},"geometry":{"type":"Point","coordinates":[9.185375,45.489256]}},{"type":"Feature","id":"node/2325726419","properties":{"type":"node","id":2325726419,"tags":{"amenity":"bicycle_rental","brand":"BikeMi","brand:wikidata":"Q2902552","brand:wikipedia":"en:BikeMi","capacity":"35","fee":"yes","name":"Zara M3","network":"BikeMi","operator":"Clear Channel","payment:credit_cards":"no","ref":"160","source":"https://www.bikemi.com/it/mappa-stazioni.aspx","website":"https://www.bikemi.com"},"relations":[],"meta":{},"amenity":"bicycle_rental","brand":"BikeMi","brand:wikidata":"Q2902552","brand:wikipedia":"en:BikeMi","capacity":"35","fee":"yes","name":"Zara M3","network":"BikeMi","operator":"Clear Channel","payment:credit_cards":"no","ref":"160","source":"https://www.bikemi.com/it/mappa-stazioni.aspx","website":"https://www.bikemi.com"},"geometry":{"type":"Point","coordinates":[9.1918902,45.4915607]}},{"type":"Feature","id":"node/2419304189","properties":{"type":"node","id":2419304189,"tags":{"bench":"no","bus":"yes","covered":"no","highway":"bus_stop","name":"Viale Stelvio - Via Lario","public_transport":"platform","shelter":"no"},"relations":[],"meta":{},"bench":"no","bus":"yes","covered":"no","highway":"bus_stop","name":"Viale Stelvio - Via Lario","public_transport":"platform","shelter":"no"},"geometry":{"type":"Point","coordinates":[9.1902165,45.4932256]}},{"type":"Feature","id":"node/2488621627","properties":{"type":"node","id":2488621627,"tags":{"addr:city":"Milano","addr:housenumber":"8","addr:postcode":"20159","addr:street":"Via Antonio Pollaiuolo","amenity":"car_rental","name":"noleggio mariani"},"relations":[],"meta":{},"addr:city":"Milano","addr:housenumber":"8","addr:postcode":"20159","addr:street":"Via Antonio Pollaiuolo","amenity":"car_rental","name":"noleggio mariani"},"geometry":{"type":"Point","coordinates":[9.1877802,45.4895065]}},{"type":"Feature","id":"node/2707129442","properties":{"type":"node","id":2707129442,"tags":{"bench":"no","bus":"yes","covered":"no","highway":"bus_stop","name":"Zara M3 M5","public_transport":"platform","ref":"19931","shelter":"no","tactile_paving":"no"},"relations":[],"meta":{},"bench":"no","bus":"yes","covered":"no","highway":"bus_stop","name":"Zara M3 M5","public_transport":"platform","ref":"19931","shelter":"no","tactile_paving":"no"},"geometry":{"type":"Point","coordinates":[9.1929762,45.4934785]}},{"type":"Feature","id":"node/2707129452","properties":{"type":"node","id":2707129452,"tags":{"bench":"no","bus":"yes","highway":"bus_stop","name":"Zara M3 M5","network":"ATM","network:wikidata":"Q381955","network:wikipedia":"it:ATM (Milano)","operator":"ATM","public_transport":"platform","ref":"17341-A","shelter":"no","tactile_paving":"no"},"relations":[],"meta":{},"bench":"no","bus":"yes","highway":"bus_stop","name":"Zara M3 M5","network":"ATM","network:wikidata":"Q381955","network:wikipedia":"it:ATM (Milano)","operator":"ATM","public_transport":"platform","ref":"17341-A","shelter":"no","tactile_paving":"no"},"geometry":{"type":"Point","coordinates":[9.1927241,45.4930367]}},{"type":"Feature","id":"node/4142387316","properties":{"type":"node","id":4142387316,"tags":{"amenity":"bicycle_rental","brand":"BikeMi","brand:wikidata":"Q2902552","brand:wikipedia":"en:BikeMi","capacity":"26","fee":"yes","name":"Valtellina - Aprica","network":"BikeMi","operator":"Clear Channel","payment:credit_cards":"no","ref":"257","source":"https://www.bikemi.com/it/mappa-stazioni.aspx","website":"https://www.bikemi.com"},"relations":[],"meta":{},"amenity":"bicycle_rental","brand":"BikeMi","brand:wikidata":"Q2902552","brand:wikipedia":"en:BikeMi","capacity":"26","fee":"yes","name":"Valtellina - Aprica","network":"BikeMi","operator":"Clear Channel","payment:credit_cards":"no","ref":"257","source":"https://www.bikemi.com/it/mappa-stazioni.aspx","website":"https://www.bikemi.com"},"geometry":{"type":"Point","coordinates":[9.1824584,45.4930892]}},{"type":"Feature","id":"node/4168033304","properties":{"type":"node","id":4168033304,"tags":{"amenity":"bicycle_parking","bicycle_parking":"Verona_rack","capacity":"15"},"relations":[],"meta":{},"amenity":"bicycle_parking","bicycle_parking":"Verona_rack","capacity":"15"},"geometry":{"type":"Point","coordinates":[9.1927657,45.4920865]}},{"type":"Feature","id":"node/4168033305","properties":{"type":"node","id":4168033305,"tags":{"amenity":"bicycle_parking","bicycle_parking":"Verona_rack","capacity":"15","covered":"no"},"relations":[],"meta":{},"amenity":"bicycle_parking","bicycle_parking":"Verona_rack","capacity":"15","covered":"no"},"geometry":{"type":"Point","coordinates":[9.1924053,45.4921848]}},{"type":"Feature","id":"node/4572043280","properties":{"type":"node","id":4572043280,"tags":{"amenity":"bicycle_rental","brand":"BikeMi","brand:wikidata":"Q2902552","brand:wikipedia":"en:BikeMi","capacity":"30","fee":"yes","name":"Alserio - Cola","network":"BikeMi","operator":"Clear Channel","payment:credit_cards":"no","ref":"317","source":"https://www.bikemi.com/it/mappa-stazioni.aspx","website":"https://www.bikemi.com","wheelchair":"limited"},"relations":[],"meta":{},"amenity":"bicycle_rental","brand":"BikeMi","brand:wikidata":"Q2902552","brand:wikipedia":"en:BikeMi","capacity":"30","fee":"yes","name":"Alserio - Cola","network":"BikeMi","operator":"Clear Channel","payment:credit_cards":"no","ref":"317","source":"https://www.bikemi.com/it/mappa-stazioni.aspx","website":"https://www.bikemi.com","wheelchair":"limited"},"geometry":{"type":"Point","coordinates":[9.1856719,45.491013]}},{"type":"Feature","id":"node/4590670110","properties":{"type":"node","id":4590670110,"tags":{"amenity":"bicycle_parking","bicycle_parking":"wall_loops","capacity":"12","covered":"no"},"relations":[],"meta":{},"amenity":"bicycle_parking","bicycle_parking":"wall_loops","capacity":"12","covered":"no"},"geometry":{"type":"Point","coordinates":[9.1930999,45.4892816]}},{"type":"Feature","id":"node/4590670121","properties":{"type":"node","id":4590670121,"tags":{"amenity":"bicycle_rental","brand":"BikeMi","brand:wikidata":"Q2902552","brand:wikipedia":"en:BikeMi","capacity":"36","fee":"yes","name":"Pola - Regione Lombardia","network":"BikeMi","operator":"Clear Channel","payment:credit_cards":"no","ref":"195","source":"https://www.bikemi.com/it/mappa-stazioni.aspx","website":"https://www.bikemi.com"},"relations":[],"meta":{},"amenity":"bicycle_rental","brand":"BikeMi","brand:wikidata":"Q2902552","brand:wikipedia":"en:BikeMi","capacity":"36","fee":"yes","name":"Pola - Regione Lombardia","network":"BikeMi","operator":"Clear Channel","payment:credit_cards":"no","ref":"195","source":"https://www.bikemi.com/it/mappa-stazioni.aspx","website":"https://www.bikemi.com"},"geometry":{"type":"Point","coordinates":[9.1932649,45.4890856]}},{"type":"Feature","id":"node/5111687989","properties":{"type":"node","id":5111687989,"tags":{"bench":"yes","bus":"yes","highway":"bus_stop","name":"Via Farini Viale Stelvio","passenger_information_display":"yes","public_transport":"platform","ref":"11616","shelter":"yes","tram":"yes","wheelchair":"yes"},"relations":[],"meta":{},"bench":"yes","bus":"yes","highway":"bus_stop","name":"Via Farini Viale Stelvio","passenger_information_display":"yes","public_transport":"platform","ref":"11616","shelter":"yes","tram":"yes","wheelchair":"yes"},"geometry":{"type":"Point","coordinates":[9.1852603,45.4943385]}},{"type":"Feature","id":"node/5111687991","properties":{"type":"node","id":5111687991,"tags":{"bench":"yes","bus":"yes","highway":"bus_stop","name":"Via Farini - Via Alserio","public_transport":"platform","ref":"11613","shelter":"yes","tram":"yes","wheelchair":"yes"},"relations":[],"meta":{},"bench":"yes","bus":"yes","highway":"bus_stop","name":"Via Farini - Via Alserio","public_transport":"platform","ref":"11613","shelter":"yes","tram":"yes","wheelchair":"yes"},"geometry":{"type":"Point","coordinates":[9.1838831,45.4910295]}},{"type":"Feature","id":"node/5111687992","properties":{"type":"node","id":5111687992,"tags":{"bench":"yes","bus":"yes","highway":"bus_stop","name":"Via Farini - Via Alserio","public_transport":"stop_position","ref":"11613","shelter":"yes","wheelchair":"yes"},"relations":[],"meta":{},"bench":"yes","bus":"yes","highway":"bus_stop","name":"Via Farini - Via Alserio","public_transport":"stop_position","ref":"11613","shelter":"yes","wheelchair":"yes"},"geometry":{"type":"Point","coordinates":[9.1838061,45.4909512]}},{"type":"Feature","id":"node/5111687993","properties":{"type":"node","id":5111687993,"tags":{"bench":"yes","bus":"yes","highway":"bus_stop","name":"Via Farini Via Valtellina","public_transport":"platform","ref":"11612","shelter":"yes","tram":"yes","wheelchair":"yes"},"relations":[],"meta":{},"bench":"yes","bus":"yes","highway":"bus_stop","name":"Via Farini Via Valtellina","public_transport":"platform","ref":"11612","shelter":"yes","tram":"yes","wheelchair":"yes"},"geometry":{"type":"Point","coordinates":[9.1831434,45.489227]}},{"type":"Feature","id":"node/5216248522","properties":{"type":"node","id":5216248522,"tags":{"name":"Zara","operator":"ATM","platforms":"2","public_transport":"station","railway":"station","station":"subway","subway":"yes","wheelchair":"yes","wikidata":"Q1088305","wikipedia":"it:Zara (metropolitana di Milano)"},"relations":[],"meta":{},"name":"Zara","operator":"ATM","platforms":"2","public_transport":"station","railway":"station","station":"subway","subway":"yes","wheelchair":"yes","wikidata":"Q1088305","wikipedia":"it:Zara (metropolitana di Milano)"},"geometry":{"type":"Point","coordinates":[9.1925598,45.4925737]}},{"type":"Feature","id":"node/5853343453","properties":{"type":"node","id":5853343453,"tags":{"amenity":"fuel","operator":"Autoservizi Mariani S.R.L.","ref:mise":"37433","wheelchair":"no"},"relations":[],"meta":{},"amenity":"fuel","operator":"Autoservizi Mariani S.R.L.","ref:mise":"37433","wheelchair":"no"},"geometry":{"type":"Point","coordinates":[9.1877335,45.4894399]}},{"type":"Feature","id":"node/6466308397","properties":{"type":"node","id":6466308397,"tags":{"access":"private","amenity":"parking_entrance","layer":"-1"},"relations":[],"meta":{},"access":"private","amenity":"parking_entrance","layer":"-1"},"geometry":{"type":"Point","coordinates":[9.1896353,45.4897068]}},{"type":"Feature","id":"node/6466471768","properties":{"type":"node","id":6466471768,"tags":{"access":"private","amenity":"bicycle_parking"},"relations":[],"meta":{},"access":"private","amenity":"bicycle_parking"},"geometry":{"type":"Point","coordinates":[9.1896675,45.489747]}},{"type":"Feature","id":"node/6466471769","properties":{"type":"node","id":6466471769,"tags":{"access":"private","amenity":"bicycle_parking"},"relations":[],"meta":{},"access":"private","amenity":"bicycle_parking"},"geometry":{"type":"Point","coordinates":[9.1896058,45.4897374]}},{"type":"Feature","id":"node/6727793827","properties":{"type":"node","id":6727793827,"tags":{"amenity":"bicycle_rental","brand":"BikeMi","brand:wikidata":"Q2902552","brand:wikipedia":"en:BikeMi","capacity":"30","fee":"yes","name":"Stelvio - Farini","network":"BikeMi","operator":"Clear Channel","payment:credit_cards":"no","ref":"270","source":"https://www.bikemi.com/it/mappa-stazioni.aspx","website":"https://www.bikemi.com"},"relations":[],"meta":{},"amenity":"bicycle_rental","brand":"BikeMi","brand:wikidata":"Q2902552","brand:wikipedia":"en:BikeMi","capacity":"30","fee":"yes","name":"Stelvio - Farini","network":"BikeMi","operator":"Clear Channel","payment:credit_cards":"no","ref":"270","source":"https://www.bikemi.com/it/mappa-stazioni.aspx","website":"https://www.bikemi.com"},"geometry":{"type":"Point","coordinates":[9.1849673,45.494787]}},{"type":"Feature","id":"node/6727793829","properties":{"type":"node","id":6727793829,"tags":{"amenity":"bicycle_rental","brand":"BikeMi","brand:wikidata":"Q2902552","brand:wikipedia":"en:BikeMi","capacity":"36","fee":"yes","name":"Valtellina - Farini","network":"BikeMi","operator":"Clear Channel","payment:credit_cards":"no","ref":"204","source":"https://www.bikemi.com/it/mappa-stazioni.aspx","website":"https://www.bikemi.com"},"relations":[],"meta":{},"amenity":"bicycle_rental","brand":"BikeMi","brand:wikidata":"Q2902552","brand:wikipedia":"en:BikeMi","capacity":"36","fee":"yes","name":"Valtellina - Farini","network":"BikeMi","operator":"Clear Channel","payment:credit_cards":"no","ref":"204","source":"https://www.bikemi.com/it/mappa-stazioni.aspx","website":"https://www.bikemi.com"},"geometry":{"type":"Point","coordinates":[9.1822851,45.4888717]}},{"type":"Feature","id":"node/7952362836","properties":{"type":"node","id":7952362836,"tags":{"amenity":"bicycle_parking","bicycle_parking":"stands","capacity":"5","covered":"no"},"relations":[],"meta":{},"amenity":"bicycle_parking","bicycle_parking":"stands","capacity":"5","covered":"no"},"geometry":{"type":"Point","coordinates":[9.1858209,45.4924212]}},{"type":"Feature","id":"node/7952362837","properties":{"type":"node","id":7952362837,"tags":{"amenity":"bicycle_parking","bicycle_parking":"stands","capacity":"5","covered":"no"},"relations":[],"meta":{},"amenity":"bicycle_parking","bicycle_parking":"stands","capacity":"5","covered":"no"},"geometry":{"type":"Point","coordinates":[9.1857585,45.4924015]}},{"type":"Feature","id":"node/7952362842","properties":{"type":"node","id":7952362842,"tags":{"amenity":"bicycle_parking","bicycle_parking":"stands","capacity":"10"},"relations":[],"meta":{},"amenity":"bicycle_parking","bicycle_parking":"stands","capacity":"10"},"geometry":{"type":"Point","coordinates":[9.1855896,45.4930497]}},{"type":"Feature","id":"node/7952362844","properties":{"type":"node","id":7952362844,"tags":{"amenity":"bicycle_parking","bicycle_parking":"stands","capacity":"10"},"relations":[],"meta":{},"amenity":"bicycle_parking","bicycle_parking":"stands","capacity":"10"},"geometry":{"type":"Point","coordinates":[9.1853736,45.4930036]}},{"type":"Feature","id":"node/8265067945","properties":{"type":"node","id":8265067945,"tags":{"amenity":"bicycle_parking","bicycle_parking":"stands","capacity":"10"},"relations":[],"meta":{},"amenity":"bicycle_parking","bicycle_parking":"stands","capacity":"10"},"geometry":{"type":"Point","coordinates":[9.1852643,45.4912277]}},{"type":"Feature","id":"node/9083530861","properties":{"type":"node","id":9083530861,"tags":{"amenity":"bicycle_parking","bicycle_parking":"verona_rack","capacity":"5"},"relations":[],"meta":{},"amenity":"bicycle_parking","bicycle_parking":"verona_rack","capacity":"5"},"geometry":{"type":"Point","coordinates":[9.1887593,45.4924132]}},{"type":"Feature","id":"node/9497576686","properties":{"type":"node","id":9497576686,"tags":{"bench":"yes","bus":"yes","covered":"yes","highway":"bus_stop","name":"Via Farini Via Alserio","public_transport":"platform","ref":"11613","shelter":"yes","tram":"yes"},"relations":[],"meta":{},"bench":"yes","bus":"yes","covered":"yes","highway":"bus_stop","name":"Via Farini Via Alserio","public_transport":"platform","ref":"11613","shelter":"yes","tram":"yes"},"geometry":{"type":"Point","coordinates":[9.1838716,45.4909419]}},{"type":"Feature","id":"way/24759848","properties":{"type":"way","id":24759848,"tags":{"access":"permissive","amenity":"parking","name":"Piazza Santa Maria alla Fontana"},"relations":[],"meta":{},"geometry":"center","access":"permissive","amenity":"parking","name":"Piazza Santa Maria alla Fontana"},"geometry":{"type":"Point","coordinates":[9.1882217,45.4926081]}},{"type":"Feature","id":"way/25828565","properties":{"type":"way","id":25828565,"tags":{"access":"yes","amenity":"parking","fee":"no","parking":"surface","wheelchair":"yes"},"relations":[],"meta":{},"geometry":"center","access":"yes","amenity":"parking","fee":"no","parking":"surface","wheelchair":"yes"},"geometry":{"type":"Point","coordinates":[9.1853449,45.4952828]}},{"type":"Feature","id":"way/136292570","properties":{"type":"way","id":136292570,"tags":{"bench":"yes","name":"Via Farini V.le Stelvio","public_transport":"platform","railway":"platform","ref":"11617","shelter":"yes","tram":"yes"},"relations":[],"meta":{},"geometry":"center","bench":"yes","name":"Via Farini V.le Stelvio","public_transport":"platform","railway":"platform","ref":"11617","shelter":"yes","tram":"yes"},"geometry":{"type":"Point","coordinates":[9.1848324,45.4946451]}},{"type":"Feature","id":"way/136292573","properties":{"type":"way","id":136292573,"tags":{"bench":"yes","bus":"yes","highway":"platform","name":"Via Farini V.le Stelvio","public_transport":"platform","railway":"platform","ref":"11616","shelter":"yes","tram":"yes"},"relations":[],"meta":{},"geometry":"center","bench":"yes","bus":"yes","highway":"platform","name":"Via Farini V.le Stelvio","public_transport":"platform","railway":"platform","ref":"11616","shelter":"yes","tram":"yes"},"geometry":{"type":"Point","coordinates":[9.1851859,45.4941393]}},{"type":"Feature","id":"way/188744860","properties":{"type":"way","id":188744860,"tags":{"public_transport":"platform"},"relations":[],"meta":{},"geometry":"center","public_transport":"platform"},"geometry":{"type":"Point","coordinates":[9.1858063,45.4944844]}},{"type":"Feature","id":"way/229065154","properties":{"type":"way","id":229065154,"tags":{"access":"yes","amenity":"parking","fee":"yes","parking":"surface"},"relations":[],"meta":{},"geometry":"center","access":"yes","amenity":"parking","fee":"yes","parking":"surface"},"geometry":{"type":"Point","coordinates":[9.1923893,45.4943845]}},{"type":"Feature","id":"way/229065155","properties":{"type":"way","id":229065155,"tags":{"access":"yes","amenity":"parking","fee":"yes","parking":"surface"},"relations":[],"meta":{},"geometry":"center","access":"yes","amenity":"parking","fee":"yes","parking":"surface"},"geometry":{"type":"Point","coordinates":[9.1836715,45.4934551]}},{"type":"Feature","id":"way/229065156","properties":{"type":"way","id":229065156,"tags":{"access":"yes","amenity":"parking","fee":"yes","parking":"surface"},"relations":[],"meta":{},"geometry":"center","access":"yes","amenity":"parking","fee":"yes","parking":"surface"},"geometry":{"type":"Point","coordinates":[9.1930311,45.4943158]}},{"type":"Feature","id":"way/229065157","properties":{"type":"way","id":229065157,"tags":{"access":"yes","amenity":"parking","fee":"yes","parking":"surface"},"relations":[],"meta":{},"geometry":"center","access":"yes","amenity":"parking","fee":"yes","parking":"surface"},"geometry":{"type":"Point","coordinates":[9.1836388,45.4933648]}},{"type":"Feature","id":"way/238285757","properties":{"type":"way","id":238285757,"tags":{"footway":"sidewalk","highway":"footway","public_transport":"platform","railway":"platform","shelter":"no","surface":"asphalt"},"relations":[],"meta":{},"geometry":"center","footway":"sidewalk","highway":"footway","public_transport":"platform","railway":"platform","shelter":"no","surface":"asphalt"},"geometry":{"type":"Point","coordinates":[9.1923649,45.4922773]}},{"type":"Feature","id":"way/238285759","properties":{"type":"way","id":238285759,"tags":{"footway":"sidewalk","highway":"footway","public_transport":"platform","railway":"platform","shelter":"no","surface":"asphalt"},"relations":[],"meta":{},"geometry":"center","footway":"sidewalk","highway":"footway","public_transport":"platform","railway":"platform","shelter":"no","surface":"asphalt"},"geometry":{"type":"Point","coordinates":[9.1928729,45.4921474]}},{"type":"Feature","id":"way/238285760","properties":{"type":"way","id":238285760,"tags":{"footway":"sidewalk","highway":"footway","public_transport":"platform","railway":"platform","shelter":"yes","smoothness":"good","surface":"paving_stones","tactile_paving":"no"},"relations":[],"meta":{},"geometry":"center","footway":"sidewalk","highway":"footway","public_transport":"platform","railway":"platform","shelter":"yes","smoothness":"good","surface":"paving_stones","tactile_paving":"no"},"geometry":{"type":"Point","coordinates":[9.1908932,45.4896777]}},{"type":"Feature","id":"way/246512669","properties":{"type":"way","id":246512669,"tags":{"public_transport":"platform"},"relations":[],"meta":{},"geometry":"center","public_transport":"platform"},"geometry":{"type":"Point","coordinates":[9.1857688,45.4944028]}},{"type":"Feature","id":"way/246515166","properties":{"type":"way","id":246515166,"tags":{"public_transport":"platform"},"relations":[],"meta":{},"geometry":"center","public_transport":"platform"},"geometry":{"type":"Point","coordinates":[9.1902196,45.4932247]}},{"type":"Feature","id":"way/246515167","properties":{"type":"way","id":246515167,"tags":{"public_transport":"platform"},"relations":[],"meta":{},"geometry":"center","public_transport":"platform"},"geometry":{"type":"Point","coordinates":[9.1910485,45.4930974]}},{"type":"Feature","id":"way/246516158","properties":{"type":"way","id":246516158,"tags":{"bench":"no","comment:it":"con indicatore tempo di attesa","covered":"no","name":"V.le Montello","public_transport":"platform","railway":"platform","ref":"11574","shelter":"no","traffic_sign":"yes"},"relations":[],"meta":{},"geometry":"center","bench":"no","comment:it":"con indicatore tempo di attesa","covered":"no","name":"V.le Montello","public_transport":"platform","railway":"platform","ref":"11574","shelter":"no","traffic_sign":"yes"},"geometry":{"type":"Point","coordinates":[9.1854474,45.4949639]}},{"type":"Feature","id":"way/249284892","properties":{"type":"way","id":249284892,"tags":{"highway":"footway","public_transport":"platform"},"relations":[],"meta":{},"geometry":"center","highway":"footway","public_transport":"platform"},"geometry":{"type":"Point","coordinates":[9.1934584,45.4923717]}},{"type":"Feature","id":"way/249284893","properties":{"type":"way","id":249284893,"tags":{"highway":"footway","public_transport":"platform"},"relations":[],"meta":{},"geometry":"center","highway":"footway","public_transport":"platform"},"geometry":{"type":"Point","coordinates":[9.1934996,45.492447]}},{"type":"Feature","id":"way/320830193","properties":{"type":"way","id":320830193,"tags":{"access":"yes","amenity":"parking","capacity:disabled":"no","fee":"no","parking":"surface","surface":"asphalt"},"relations":[],"meta":{},"geometry":"center","access":"yes","amenity":"parking","capacity:disabled":"no","fee":"no","parking":"surface","surface":"asphalt"},"geometry":{"type":"Point","coordinates":[9.182069,45.488279]}},{"type":"Feature","id":"way/320834050","properties":{"type":"way","id":320834050,"tags":{"access":"yes","amenity":"parking","fee:conditional":"yes @ (Mo-Sa 08:00-19:00; PH off); no @ (private)","note:fee":"tassametro nei feriali 8.00-19,00, eccetto veicoli con contrassegno zona 10","parking":"surface","surface":"asphalt"},"relations":[],"meta":{},"geometry":"center","access":"yes","amenity":"parking","fee:conditional":"yes @ (Mo-Sa 08:00-19:00; PH off); no @ (private)","note:fee":"tassametro nei feriali 8.00-19,00, eccetto veicoli con contrassegno zona 10","parking":"surface","surface":"asphalt"},"geometry":{"type":"Point","coordinates":[9.1825538,45.4906977]}},{"type":"Feature","id":"way/330859402","properties":{"type":"way","id":330859402,"tags":{"amenity":"parking","parking":"surface","surface":"asphalt"},"relations":[],"meta":{},"geometry":"center","amenity":"parking","parking":"surface","surface":"asphalt"},"geometry":{"type":"Point","coordinates":[9.1886514,45.4944398]}},{"type":"Feature","id":"way/330859404","properties":{"type":"way","id":330859404,"tags":{"amenity":"parking","parking":"surface","surface":"asphalt"},"relations":[],"meta":{},"geometry":"center","amenity":"parking","parking":"surface","surface":"asphalt"},"geometry":{"type":"Point","coordinates":[9.1883302,45.4941439]}},{"type":"Feature","id":"way/331557725","properties":{"type":"way","id":331557725,"tags":{"addr:city":"Milano","addr:country":"IT","addr:housenumber":"25/A","addr:postcode":"20159","addr:street":"Via Carlo Farini","amenity":"fuel","brand":"TotalErg","brand:wikidata":"Q3995933","brand:wikipedia":"it:TotalErg","fuel:GTL_diesel":"yes","fuel:diesel":"yes","fuel:octane_95":"yes","name":"TotalErg","operator":"Ferrara Franco","ref:mise":"14205","source:date":"2018-04-16"},"relations":[],"meta":{},"geometry":"center","addr:city":"Milano","addr:country":"IT","addr:housenumber":"25/A","addr:postcode":"20159","addr:street":"Via Carlo Farini","amenity":"fuel","brand":"TotalErg","brand:wikidata":"Q3995933","brand:wikipedia":"it:TotalErg","fuel:GTL_diesel":"yes","fuel:diesel":"yes","fuel:octane_95":"yes","name":"TotalErg","operator":"Ferrara Franco","ref:mise":"14205","source:date":"2018-04-16"},"geometry":{"type":"Point","coordinates":[9.1820191,45.4885708]}},{"type":"Feature","id":"way/345542600","properties":{"type":"way","id":345542600,"tags":{"amenity":"parking","fee":"yes","parking":"surface"},"relations":[],"meta":{},"geometry":"center","amenity":"parking","fee":"yes","parking":"surface"},"geometry":{"type":"Point","coordinates":[9.1819357,45.490413]}},{"type":"Feature","id":"way/371925617","properties":{"type":"way","id":371925617,"tags":{"amenity":"parking","parking":"surface"},"relations":[],"meta":{},"geometry":"center","amenity":"parking","parking":"surface"},"geometry":{"type":"Point","coordinates":[9.1895538,45.4952728]}},{"type":"Feature","id":"way/371925618","properties":{"type":"way","id":371925618,"tags":{"access":"yes","amenity":"parking","fee":"yes","parking":"surface"},"relations":[],"meta":{},"geometry":"center","access":"yes","amenity":"parking","fee":"yes","parking":"surface"},"geometry":{"type":"Point","coordinates":[9.1903601,45.4949477]}},{"type":"Feature","id":"way/371925619","properties":{"type":"way","id":371925619,"tags":{"amenity":"parking","parking":"surface"},"relations":[],"meta":{},"geometry":"center","amenity":"parking","parking":"surface"},"geometry":{"type":"Point","coordinates":[9.1904767,45.4950192]}},{"type":"Feature","id":"way/371925620","properties":{"type":"way","id":371925620,"tags":{"access":"yes","amenity":"parking","fee":"yes","parking":"surface"},"relations":[],"meta":{},"geometry":"center","access":"yes","amenity":"parking","fee":"yes","parking":"surface"},"geometry":{"type":"Point","coordinates":[9.19101,45.4948719]}},{"type":"Feature","id":"way/371925621","properties":{"type":"way","id":371925621,"tags":{"amenity":"parking","parking":"surface"},"relations":[],"meta":{},"geometry":"center","amenity":"parking","parking":"surface"},"geometry":{"type":"Point","coordinates":[9.189908,45.4950727]}},{"type":"Feature","id":"way/387315478","properties":{"type":"way","id":387315478,"tags":{"access":"private","amenity":"parking","parking":"surface"},"relations":[],"meta":{},"geometry":"center","access":"private","amenity":"parking","parking":"surface"},"geometry":{"type":"Point","coordinates":[9.1809156,45.4914638]}},{"type":"Feature","id":"way/412912694","properties":{"type":"way","id":412912694,"tags":{"access":"yes","amenity":"parking","fee":"yes","parking":"surface"},"relations":[],"meta":{},"geometry":"center","access":"yes","amenity":"parking","fee":"yes","parking":"surface"},"geometry":{"type":"Point","coordinates":[9.1816464,45.4920377]}},{"type":"Feature","id":"way/498023290","properties":{"type":"way","id":498023290,"tags":{"bench":"no","name":"Via Ugo Bassi","public_transport":"platform","railway":"platform","ref":"11611","shelter":"no","tram":"yes"},"relations":[],"meta":{},"geometry":"center","bench":"no","name":"Via Ugo Bassi","public_transport":"platform","railway":"platform","ref":"11611","shelter":"no","tram":"yes"},"geometry":{"type":"Point","coordinates":[9.183451,45.4887242]}},{"type":"Feature","id":"way/498023304","properties":{"type":"way","id":498023304,"tags":{"bench":"yes","name":"Via Farini Via Valtellina","public_transport":"platform","railway":"platform","ref":"11609","shelter":"yes","tram":"yes"},"relations":[],"meta":{},"geometry":"center","bench":"yes","name":"Via Farini Via Valtellina","public_transport":"platform","railway":"platform","ref":"11609","shelter":"yes","tram":"yes"},"geometry":{"type":"Point","coordinates":[9.1830068,45.4891957]}},{"type":"Feature","id":"way/498023306","properties":{"type":"way","id":498023306,"tags":{"bench":"yes","name":"Via Farini Via Alserio","old_name":"Via Farini - Via Galli","public_transport":"platform","railway":"platform","ref":"11614","shelter":"yes","tram":"yes"},"relations":[],"meta":{},"geometry":"center","bench":"yes","name":"Via Farini Via Alserio","old_name":"Via Farini - Via Galli","public_transport":"platform","railway":"platform","ref":"11614","shelter":"yes","tram":"yes"},"geometry":{"type":"Point","coordinates":[9.1840764,45.4917118]}},{"type":"Feature","id":"way/520741400","properties":{"type":"way","id":520741400,"tags":{"access":"private","amenity":"parking","parking":"surface"},"relations":[],"meta":{},"geometry":"center","access":"private","amenity":"parking","parking":"surface"},"geometry":{"type":"Point","coordinates":[9.1912078,45.4927176]}},{"type":"Feature","id":"way/889016115","properties":{"type":"way","id":889016115,"tags":{"amenity":"motorcycle_parking","capacity":"6","parking":"surface","surface":"asphalt"},"relations":[],"meta":{},"geometry":"center","amenity":"motorcycle_parking","capacity":"6","parking":"surface","surface":"asphalt"},"geometry":{"type":"Point","coordinates":[9.1855745,45.4930689]}},{"type":"Feature","id":"way/889016116","properties":{"type":"way","id":889016116,"tags":{"amenity":"parking_space","capacity":"1"},"relations":[],"meta":{},"geometry":"center","amenity":"parking_space","capacity":"1"},"geometry":{"type":"Point","coordinates":[9.185545,45.493059]}},{"type":"Feature","id":"way/889016117","properties":{"type":"way","id":889016117,"tags":{"amenity":"parking_space","capacity":"1"},"relations":[],"meta":{},"geometry":"center","amenity":"parking_space","capacity":"1"},"geometry":{"type":"Point","coordinates":[9.1855568,45.493063]}},{"type":"Feature","id":"way/889016118","properties":{"type":"way","id":889016118,"tags":{"amenity":"parking_space","capacity":"1"},"relations":[],"meta":{},"geometry":"center","amenity":"parking_space","capacity":"1"},"geometry":{"type":"Point","coordinates":[9.1855686,45.4930669]}},{"type":"Feature","id":"way/889016119","properties":{"type":"way","id":889016119,"tags":{"amenity":"parking_space","capacity":"1"},"relations":[],"meta":{},"geometry":"center","amenity":"parking_space","capacity":"1"},"geometry":{"type":"Point","coordinates":[9.1855804,45.4930709]}},{"type":"Feature","id":"way/889016120","properties":{"type":"way","id":889016120,"tags":{"amenity":"parking_space","capacity":"1"},"relations":[],"meta":{},"geometry":"center","amenity":"parking_space","capacity":"1"},"geometry":{"type":"Point","coordinates":[9.1855922,45.4930748]}},{"type":"Feature","id":"way/889016121","properties":{"type":"way","id":889016121,"tags":{"amenity":"parking_space","capacity":"1"},"relations":[],"meta":{},"geometry":"center","amenity":"parking_space","capacity":"1"},"geometry":{"type":"Point","coordinates":[9.185604,45.4930788]}},{"type":"Feature","id":"way/889016122","properties":{"type":"way","id":889016122,"tags":{"amenity":"motorcycle_parking","capacity":"10","parking":"surface","surface":"asphalt"},"relations":[],"meta":{},"geometry":"center","amenity":"motorcycle_parking","capacity":"10","parking":"surface","surface":"asphalt"},"geometry":{"type":"Point","coordinates":[9.1851146,45.4930692]}},{"type":"Feature","id":"way/889016123","properties":{"type":"way","id":889016123,"tags":{"amenity":"parking_space","capacity":"1"},"relations":[],"meta":{},"geometry":"center","amenity":"parking_space","capacity":"1"},"geometry":{"type":"Point","coordinates":[9.1850581,45.4930808]}},{"type":"Feature","id":"way/889016124","properties":{"type":"way","id":889016124,"tags":{"amenity":"parking_space","capacity":"1"},"relations":[],"meta":{},"geometry":"center","amenity":"parking_space","capacity":"1"},"geometry":{"type":"Point","coordinates":[9.1850708,45.4930783]}},{"type":"Feature","id":"way/889016125","properties":{"type":"way","id":889016125,"tags":{"amenity":"parking_space","capacity":"1"},"relations":[],"meta":{},"geometry":"center","amenity":"parking_space","capacity":"1"},"geometry":{"type":"Point","coordinates":[9.1850832,45.4930756]}},{"type":"Feature","id":"way/889016126","properties":{"type":"way","id":889016126,"tags":{"amenity":"parking_space","capacity":"1"},"relations":[],"meta":{},"geometry":"center","amenity":"parking_space","capacity":"1"},"geometry":{"type":"Point","coordinates":[9.1850958,45.4930731]}},{"type":"Feature","id":"way/889016127","properties":{"type":"way","id":889016127,"tags":{"amenity":"parking_space","capacity":"1"},"relations":[],"meta":{},"geometry":"center","amenity":"parking_space","capacity":"1"},"geometry":{"type":"Point","coordinates":[9.1851084,45.4930704]}},{"type":"Feature","id":"way/889016128","properties":{"type":"way","id":889016128,"tags":{"amenity":"parking_space","capacity":"1"},"relations":[],"meta":{},"geometry":"center","amenity":"parking_space","capacity":"1"},"geometry":{"type":"Point","coordinates":[9.1851209,45.4930679]}},{"type":"Feature","id":"way/889016129","properties":{"type":"way","id":889016129,"tags":{"amenity":"parking_space","capacity":"1"},"relations":[],"meta":{},"geometry":"center","amenity":"parking_space","capacity":"1"},"geometry":{"type":"Point","coordinates":[9.1851335,45.4930654]}},{"type":"Feature","id":"way/889016130","properties":{"type":"way","id":889016130,"tags":{"amenity":"parking_space","capacity":"1"},"relations":[],"meta":{},"geometry":"center","amenity":"parking_space","capacity":"1"},"geometry":{"type":"Point","coordinates":[9.1851461,45.4930627]}},{"type":"Feature","id":"way/889016131","properties":{"type":"way","id":889016131,"tags":{"amenity":"parking_space","capacity":"1"},"relations":[],"meta":{},"geometry":"center","amenity":"parking_space","capacity":"1"},"geometry":{"type":"Point","coordinates":[9.1851586,45.4930602]}},{"type":"Feature","id":"way/889016132","properties":{"type":"way","id":889016132,"tags":{"amenity":"parking_space","capacity":"1"},"relations":[],"meta":{},"geometry":"center","amenity":"parking_space","capacity":"1"},"geometry":{"type":"Point","coordinates":[9.1851712,45.4930577]}},{"type":"Feature","id":"way/894609633","properties":{"type":"way","id":894609633,"tags":{"access":"yes","amenity":"parking","fee":"yes","parking":"surface"},"relations":[],"meta":{},"geometry":"center","access":"yes","amenity":"parking","fee":"yes","parking":"surface"},"geometry":{"type":"Point","coordinates":[9.1925955,45.4944385]}},{"type":"Feature","id":"way/894609637","properties":{"type":"way","id":894609637,"tags":{"access":"yes","amenity":"parking","fee":"yes","parking":"surface"},"relations":[],"meta":{},"geometry":"center","access":"yes","amenity":"parking","fee":"yes","parking":"surface"},"geometry":{"type":"Point","coordinates":[9.1923188,45.4945139]}},{"type":"Feature","id":"way/894609638","properties":{"type":"way","id":894609638,"tags":{"access":"yes","amenity":"parking","fee":"yes","parking":"surface"},"relations":[],"meta":{},"geometry":"center","access":"yes","amenity":"parking","fee":"yes","parking":"surface"},"geometry":{"type":"Point","coordinates":[9.1918785,45.4946348]}},{"type":"Feature","id":"way/894637743","properties":{"type":"way","id":894637743,"tags":{"amenity":"parking","parking":"surface"},"relations":[],"meta":{},"geometry":"center","amenity":"parking","parking":"surface"},"geometry":{"type":"Point","coordinates":[9.1893383,45.4952281]}},{"type":"Feature","id":"way/894637744","properties":{"type":"way","id":894637744,"tags":{"access":"yes","amenity":"parking","fee":"yes","parking":"surface"},"relations":[],"meta":{},"geometry":"center","access":"yes","amenity":"parking","fee":"yes","parking":"surface"},"geometry":{"type":"Point","coordinates":[9.1909219,45.4947933]}},{"type":"Feature","id":"way/894941338","properties":{"type":"way","id":894941338,"tags":{"footway":"sidewalk","highway":"footway","lit":"yes","public_transport":"platform","smoothness":"intermediate","surface":"asphalt"},"relations":[],"meta":{},"geometry":"center","footway":"sidewalk","highway":"footway","lit":"yes","public_transport":"platform","smoothness":"intermediate","surface":"asphalt"},"geometry":{"type":"Point","coordinates":[9.1904467,45.4931653]}},{"type":"Feature","id":"way/918749158","properties":{"type":"way","id":918749158,"tags":{"bench":"no","comment:it":"con indicatore tempo di attesa","covered":"no","name":"V.le Montello","public_transport":"platform","railway":"platform","ref":"11574","shelter":"no","smoothness":"good","surface":"paving_stones","traffic_sign":"yes"},"relations":[],"meta":{},"geometry":"center","bench":"no","comment:it":"con indicatore tempo di attesa","covered":"no","name":"V.le Montello","public_transport":"platform","railway":"platform","ref":"11574","shelter":"no","smoothness":"good","surface":"paving_stones","traffic_sign":"yes"},"geometry":{"type":"Point","coordinates":[9.1831345,45.4892184]}},{"type":"Feature","id":"way/936491144","properties":{"type":"way","id":936491144,"tags":{"footway":"sidewalk","highway":"footway","public_transport":"platform","railway":"platform","shelter":"yes","smoothness":"good","surface":"paving_stones","tactile_paving":"no"},"relations":[],"meta":{},"geometry":"center","footway":"sidewalk","highway":"footway","public_transport":"platform","railway":"platform","shelter":"yes","smoothness":"good","surface":"paving_stones","tactile_paving":"no"},"geometry":{"type":"Point","coordinates":[9.1914297,45.4895894]}},{"type":"Feature","id":"way/936492936","properties":{"type":"way","id":936492936,"tags":{"public_transport":"platform","railway":"platform"},"relations":[],"meta":{},"geometry":"center","public_transport":"platform","railway":"platform"},"geometry":{"type":"Point","coordinates":[9.1914823,45.4895597]}},{"type":"Feature","id":"way/1034596971","properties":{"type":"way","id":1034596971,"tags":{"amenity":"parking"},"relations":[],"meta":{},"geometry":"center","amenity":"parking"},"geometry":{"type":"Point","coordinates":[9.1913062,45.4933523]}}]}